FID,FID_1,NAME,PERMIT_NO,ADDRESS,CITY,ZIP_CODE,PHONE,CONTACT,PUMPS,CNG_DEV,SRA,X,Y
0,10,76 CONOCOPHILLIPS #252196,3599,3795 6TH AV,SAN DIEGO,92103.000000000000000,619-296-2157,,32,0,1.000000000000000,-117.159373204000000,32.746822498900002
1,49,SHELL OIL PRODUCTS US #135924,3965,1011 A ST,SAN DIEGO,92101.000000000000000,602-468-6944,,36,0,1.000000000000000,-117.155350836000000,32.718679129400002
2,61,76 # NORTH PARK,15016,3154 EL CAJON BLVD,SAN DIEGO,92104.000000000000000,619 283-6251,,24,0,1.000000000000000,-117.126111076000000,32.755753286100003
3,102,"7-ELEVEN #19628 /7-ELEVEN, INC",2149,2101 FERN ST,SAN DIEGO,92104.000000000000000,464-2711,,12,0,1.000000000000000,-117.129403534999990,32.727801576700003
4,107,"7-ELEVEN #20551 /7-ELEVEN, INC",2347,1602 UNIVERSITY AVE,SAN DIEGO,92103.000000000000000,278-7861,,12,0,1.000000000000000,-117.149260916000000,32.748618215299999
5,155,ARCO #5139 CROSSRD PETR. INC.,14183,2340 EL CAJON BLVD,SAN DIEGO,92104.000000000000000,619-295-2443,,24,0,1.000000000000000,-117.139129556000000,32.755708260299997
6,205,"ARCO-BP WEST COAST PRODUCTS, LLC",13407,2295 E HARBOR DR,SAN DIEGO,92113.000000000000000,,,16,0,1.000000000000000,-117.141857470000010,32.693745720599999
7,273,CHEVRON-PHIL M. MAESTAS,11947,4180 PARK BLVD,SAN DIEGO,92103.000000000000000,619-291-5211,,24,0,1.000000000000000,-117.146705978000000,32.754036951800003
8,307,COUNTY OF SAN DIEGO/FLEET GARAGE,10404,1251 UNION ST,SAN DIEGO,92101.000000000000000,,,2,0,1.000000000000000,-117.165195772999990,32.718354296100003
9,325,EXXON #1028/NEW WEST PETROLEUM SD1,2015,2405 UNIVERSITY AVE,SAN DIEGO,92104.000000000000000,916-443-0890,,28,0,1.000000000000000,-117.138606776000000,32.748219227299998
10,343,EXXON/APRO LLC #26/REGENT GAS,12102,3010 MARKET ST,SAN DIEGO,92102.000000000000000,,,34,0,1.000000000000000,-117.129857133000000,32.712004040399997
11,349,EXXONMOBIL OIL CORP #10682,2809,1809 W WASHINGTON ST,SAN DIEGO,92103.000000000000000,619-543-0633,,38,0,1.000000000000000,-117.181316067000000,32.742834944000002
12,379,GAS DEPOT AUTO CARE,11997,1619 G ST,SAN DIEGO,92101.000000000000000,619 235 6742,,18,0,1.000000000000000,-117.148853978000010,32.712395095600002
13,384,GOLDEN STATE GASOLINE INC,11387,2404 EL CAJON BLVD,SAN DIEGO,92104.000000000000000,619 593 6652,,24,0,1.000000000000000,-117.138539213000000,32.755710452599999
14,388,GREYHOUND LINES INC./TAX DEPARTMENT,8118,120 W BRDWY,SAN DIEGO,92101.000000000000000,619-239-1289,,1,0,1.000000000000000,-117.164434994999990,32.716163873500001
15,389,HARBOR ISLAND FUEL DOCK,8243,2040 HARBOR ISLAND DR,SAN DIEGO,92101.000000000000000,619-291-6443,,9,0,1.000000000000000,-117.211128626999990,32.725921352500002
16,399,HIGH SEAS FUEL DOCK,10896,2540 SHELTER ISLAND DR,SAN DIEGO,92106.000000000000000,619-523-2980,,20,0,1.000000000000000,-117.226522084000000,32.720810131299999
17,403,J.R. GAS,15014,505 S 30TH ST,SAN DIEGO,92113.000000000000000,619 239-4550,,24,0,1.000000000000000,-117.129224566000000,32.700899089700002
18,409,"MARKET ST REAL ESTATE HOLDINGS, LLC",15819,1606 MARKET ST STE 915,SAN DIEGO,92101.000000000000000,,,24,0,1.000000000000000,-117.149015637000010,32.711829096999999
19,413,MOBIL-BODY BEAUTIFUL CAR WASH INC,3642,2045 PACIFIC HIGHWY,SAN DIEGO,92101.000000000000000,619-563-5566,,40,0,1.000000000000000,-117.171454495000010,32.725187921900002
20,419,NORTH PARK SERVICE CENTER,2252,3001 EL CAJON BLVD,SAN DIEGO,92104.000000000000000,619 284-3426,,24,0,1.000000000000000,-117.129970511000000,32.754950054900000
21,430,PETROMERICA,6322,1548 F ST,SAN DIEGO,92101.000000000000000,619-235-8751,,24,0,1.000000000000000,-117.149824536000000,32.713997628199998
22,442,ROUTE 66,15628,3535 INDIA ST,SAN DIEGO,92103.000000000000000,619-296-4673,,24,0,1.000000000000000,-117.177800300000000,32.739737052099997
23,453,SHELL OIL PRODUCTS US #120520,13043,1145 S 28TH ST,SAN DIEGO,92113.000000000000000,602.468.6944,,28,0,1.000000000000000,-117.133522302000000,32.694283964999997
24,484,SHELL OIL PRODUCTS US #135904,2123,2484 F ST,SAN DIEGO,92102.000000000000000,271-9499,,24,0,1.000000000000000,-117.140594952000000,32.714044008499997
25,486,SHELL OIL PRODUCTS US #135918,2920,330 WASHINGTON ST,SAN DIEGO,92103.000000000000000,602-468-6944,,24,0,1.000000000000000,-117.161960513000000,32.750231141299999
26,489,SHELL OIL PRODUCTS US #135929,4018,2521 PACIFIC HIGHWY,SAN DIEGO,92101.000000000000000,602-468-6944,,18,4,1.000000000000000,-117.173547809000000,32.729929949300001
27,505,SKS INC,6901,1141 E ST,SAN DIEGO,92101.000000000000000,858-530-1193,,8,0,1.000000000000000,-117.154243845000000,32.714409520399997
28,539,THRIFTY #9752,2694,3255 UNIVERSITY AVE,SAN DIEGO,92104.000000000000000,,,36,0,1.000000000000000,-117.123494432000000,32.748223059300003
29,567,VALERO-TEXAS ST VALERO,14086,4616 TEXAS ST,SAN DIEGO,92116.000000000000000,619-296-4913,SAMIR SOMO - PRESIDENT,24,0,1.000000000000000,-117.139111111000010,32.761293701600003
30,643,MOHSEN OIL,13566,1328 3RD AVE,CHULA VISTA,91911.000000000000000,760-945-7222,,30,0,1.000000000000000,-117.123840517000000,32.719825777099999
31,658,THRIFTY #9560,2663,2502 IMPERIAL AVE,SAN DIEGO,92102.000000000000000,,,36,0,1.000000000000000,-117.139820087000000,32.706528993299997
32,697,"EXXON #1027, NEWEST PETROLEUM LLC",2018,1666 1ST AV,SAN DIEGO,92101.000000000000000,916-443-0890,,28,0,1.000000000000000,-117.164039102000000,32.722977855000003
33,710,"7-ELEVEN #19526 /7-ELEVEN, INC",2148,3792 4TH AV,SAN DIEGO,92103.000000000000000,464-2711,,12,0,1.000000000000000,-117.161767657000000,32.746681186799997
34,730,CALIFORNIA SUPER GAS,15307,510 5TH AV,ESCONDIDO,92025.000000000000000,760 233-3975,,18,0,1.000000000000000,-117.160294058999990,32.710623369499999
35,746,EXXON #1040/NEWEST PETROLEUM SD2,2539,3302 PALM AV,SAN DIEGO,92154.000000000000000,916-443-0890,,30,0,1.000000000000000,-117.123014491000010,32.735759032899999
36,68,76 CONOCOPHILLIPS#251927,53,1076 ROSECRANS ST,SAN DIEGO,92106.000000000000000,619-224-2578,,18,0,2.000000000000000,-117.232199664000010,32.721444623899998
37,87,76-POINT LOMA 76,12910,1704 ROSECRANS ST,SAN DIEGO,92106.000000000000000,858 538-9085,,32,0,2.000000000000000,-117.225935539000010,32.728915735800001
38,112,"7-ELEVEN #22872 /7-ELEVEN, INC",2348,1826 ROSECRANS ST,SAN DIEGO,92106.000000000000000,278-7861,,6,0,2.000000000000000,-117.224693316000000,32.730380547800003
39,144,APRO LLC #36,15868,2305 SUNSET CLIFFS BLVD,SAN DIEGO,92107.000000000000000,,,24,0,2.000000000000000,-117.241784125000000,32.751130112699997
40,196,ARCO AMPM MINI MART,3477,2940 LYTTON ST,SAN DIEGO,92110.000000000000000,619-226-1553,,36,0,2.000000000000000,-117.211951381000010,32.744251053699998
41,220,ARCO-THRIFTY  #9599,2690,3860 OLD TOWN AVE,SAN DIEGO,92110.000000000000000,,,38,0,2.000000000000000,-117.193309774000000,32.748555574800001
42,221,BJ RENTALS,10672,3959 PACIFIC HIGHWY,SAN DIEGO,92110.000000000000000,,STEVE VAN CURA,2,0,2.000000000000000,-117.189338335000000,32.743045868499998
43,269,CHEVRON-G & M OIL CO. INC. #106,11943,1832 WASHINGTON ST,SAN DIEGO,92103.000000000000000,714 375 4700,,28,0,2.000000000000000,-117.181963739000000,32.743187689800003
44,417,NATION'S RENTS,11599,3860 SHERMAN ST,SAN DIEGO,92110.000000000000000,619-298-9846,,4,0,2.000000000000000,-117.207175375000010,32.757124156099998
45,433,POINT LOMA GAS AND MARKET,14479,4792 POINT LOMA AVE,SAN DIEGO,92107.000000000000000,619 222-1500,GHALIB MCKANY,20,0,2.000000000000000,-117.254484348999990,32.736489659400000
46,451,SHELL -MIDWY,14671,3425 MIDWY DR,SAN DIEGO,92110.000000000000000,619 758-1412,,40,0,2.000000000000000,-117.212797902000010,32.750288465200001
47,462,SHELL OIL PRODUCTS US #121180,3127,3711 W CAM DEL RIO,SAN DIEGO,92110.000000000000000,602-468-6944,,29,0,2.000000000000000,-117.204498287000010,32.754266853700003
48,483,SHELL OIL PRODUCTS US #135898,15996,4794 VOLTAIRE ST,SAN DIEGO,92107.000000000000000,619-224-1900,,24,0,2.000000000000000,-117.242769890999990,32.749996657499999
49,485,SHELL OIL PRODUCTS US #135913,4202,2290 MOORE ST,SAN DIEGO,92110.000000000000000,602-468-6944,,24,0,2.000000000000000,-117.192795808000000,32.748244440999997
50,526,THRIFTY  #9575,2679,1551 ROSECRANS AVE,SAN DIEGO,92106.000000000000000,619-222-8919,,30,0,2.000000000000000,-117.226912264000010,32.726824261399997
51,538,THRIFTY #9751,2693,1902 SUNSET CLIFFS BLVD,SAN DIEGO,92107.000000000000000,,,16,0,2.000000000000000,-117.247575717000000,32.745133167699997
52,676,CHEVRON - #92239*,3036,2959 MIDWY DR,SAN DIEGO,92110.000000000000000,510-842-9002,JEFF,36,0,2.000000000000000,-117.205792030000000,32.749272280699998
53,705,76 CONOCOPHILLIPS#255222,1910,4049 POINT LOMA BLVD,SAN DIEGO,92110.000000000000000,224-7761,,32,0,2.000000000000000,-117.243060992000000,32.729334098400003
54,723,ARCO AM/PM-ARENA FUELS,14354,3580 SPORTS ARENA BLVD,SAN DIEGO,92110.000000000000000,619 221-0139,ARENA FUELS,48,0,2.000000000000000,-117.212866644000000,32.754001900900001
55,770,SHELL OIL PRODUCTS US #121238,6072,4201 POINT LOMA BLVD,SAN DIEGO,92110.000000000000000,602-468-6944,,28,0,2.000000000000000,-117.244744165000000,32.729988619899999
56,78,76 CORONADO,15709,900 ORANGE AVE,CORONADO,92118.000000000000000,619-435-0076,,24,0,3.000000000000000,-117.179570518999990,32.687275806800002
57,294,CORONADO ISLAND EXPRESS,2080,400 ORANGE AVE,CORONADO,92118.000000000000000,619-435-8180,,12,0,3.000000000000000,-117.175375629000000,32.694503307300003
58,15,ARCO AMPM #6523,12668,133 8TH ST,NATIONAL CITY,91950.000000000000000,714 670-5179,,56,0,4.000000000000000,-117.108349721000000,32.675576720999999
59,31,VALERO-HIGHLAND VALERO,13942,804 8TH ST,NATIONAL CITY,91950.000000000000000,619-477-5544,,28,0,4.000000000000000,-117.098548820999990,32.678038963600002
60,277,CHEVRON-SWEETWATER CAR WASH,14715,1999 SWEETWATER RD,NATIONAL CITY,91950.000000000000000,,,44,0,4.000000000000000,-117.079393192000000,32.661658094300002
61,398,HERTZ EQUIPMENT RENTAL,0,415 W 30TH ST,NATIONAL CITY,91950.000000000000000,,,2,0,4.000000000000000,-117.104722470000000,32.656291772899998
62,400,HIGHLAND SERVICE STATION,15311,1803 HIGHLAND AVE,NATIONAL CITY,91950.000000000000000,619 454-4488,,24,0,4.000000000000000,-117.094885914000000,32.669336281000000
63,531,THRIFTY #9569,2673,1734 HIGHLAND AVE,NATIONAL CITY,91950.000000000000000,,,40,0,4.000000000000000,-117.095841884000000,32.669739251499998
64,652,SHELL OIL PRODUCTS US #135645,1936,1601 E 8TH ST,NATIONAL CITY,91950.000000000000000,602-468-6944,,30,0,4.000000000000000,-117.089293067000000,32.680214881900000
65,660,THRIFTY #9566,2669,1606 PLAZA BLVD,NATIONAL CITY,91950.000000000000000,,,36,0,4.000000000000000,-117.088614789999990,32.676385346000004
66,661,THRIFTY #9570,2674,1139 HARBISON AVE,NATIONAL CITY,91950.000000000000000,,,36,0,4.000000000000000,-117.073853832000000,32.682240217100002
67,670,ARCO,11934,2336 HIGHLAND AVE,NATIONAL CITY,91950.000000000000000,619-477-0034,,16,0,4.000000000000000,-117.093696463000000,32.664811080299998
68,675,CHEVRON,15077,3009 HIGHLAND AVE,NATIONAL CITY,91950.000000000000000,619 474-2088,,28,0,4.000000000000000,-117.091085891000010,32.658966098999997
69,683,EXXONMOBIL OIL CORP #13189,2654,2945 HIGHLAND AVE,NATIONAL CITY,91950.000000000000000,619-477-9451,,18,0,4.000000000000000,-117.091390197000000,32.659746964699998
70,687,MOBIL-ATTN: SID M. SHAHROKNI,2190,10 OSBORN ST,NATIONAL CITY,91950.000000000000000,619-477-4344,,24,0,4.000000000000000,-117.109709282000000,32.682535513399998
71,689,SHELL OIL PRODUCTS US #135646,3124,2401 E DIVISION ST,NATIONAL CITY,91950.000000000000000,263-9377,,24,0,4.000000000000000,-117.084982485000000,32.689743671300000
72,715,"7-ELEVEN #24344 /7-ELEVEN, INC",2519,1311 PALM AV,IMPERIAL BEAC,91932.000000000000000,474-7021,,12,0,4.000000000000000,-117.088884461000010,32.676576996800001
73,754,HAWTHORNE RENT-IT SERVICE,4536,2000 MCKINLEY AV,NATIONAL CITY,91950.000000000000000,474-8222,,2,0,4.000000000000000,-117.110242623999990,32.663172919099999
74,763,"PEPPER OIL COMPANY, INC.",9143,2300 TIDELANDS AV,NATIONAL CITY,91950.000000000000000,619-336-6111,,2,0,4.000000000000000,-117.115185092000000,32.658938711499999
75,772,SHELL OIL PRODUCTS US #135921,2726,1881 PALM AV,SAN DIEGO,92154.000000000000000,602-468-6944,,36,0,4.000000000000000,-117.086756588000000,32.671105977800003
76,774,SO CAL TRUCK STOP,0,2250 TIDELANDS AV,NATIONAL CITY,91950.000000000000000,619-336-6103,,18,0,4.000000000000000,-117.115233421000000,32.659164880200002
77,777,THRIFTY #9563,2666,1890 PALM AV,SAN DIEGO,92154.000000000000000,,,28,0,4.000000000000000,-117.087038505000000,32.670950616799999
78,33,"CHEVRON #45/G&M OIL CO., #45",1757,3774 MAIN ST,SAN DIEGO,92113.000000000000000,714-375-4700,,28,0,5.000000000000000,-117.112589888000000,32.684021899800001
79,100,"7-ELEVEN #16498 /7-ELEVEN, INC",2146,103 WORTHINGTON ST,SPRING VALLEY,91977.000000000000000,464-2711,,12,0,5.000000000000000,-117.018358355000000,32.697828950300000
80,120,"7-ELEVEN #25807 /7-ELEVEN, INC",4472,1075 ELKELTON,SPRING VALLEY,91977.000000000000000,464-2711,,12,0,5.000000000000000,-117.017184478000000,32.714401367400001
81,136,ALTA VIEW UNOCAL #6918 - THURSTON CO. S,3447,2919 ALTA VIEW DR,SAN DIEGO,92139.000000000000000,858 832-9085,,26,0,5.000000000000000,-117.039188351000010,32.676284631500003
82,142,APRO LLC #25,12101,6839 IMPERIAL AVE,SAN DIEGO,92114.000000000000000,,,24,0,5.000000000000000,-117.050085928000000,32.711335950399999
83,206,ARCO-CALIFORNIA FINEST OIL/IMPERIAL ARC,11938,6311 IMPERIAL AVE,SAN DIEGO,92114.000000000000000,619-263-9512,,24,0,5.000000000000000,-117.062087553000000,32.709791515500001
84,210,"ARCO-GAS DEPOT, THE",2551,495 S MEADOWBROOK DR,SAN DIEGO,92114.000000000000000,619-267-1594,,24,0,5.000000000000000,-117.025741641000000,32.697978881799997
85,257,"CHEVRON /G&M OIL CO., #125",14032,3502 NATIONAL AVE,SAN DIEGO,92113.000000000000000,714-375-4700,,30,0,5.000000000000000,-117.118609721000000,32.696303921400002
86,297,COSTCO WHOLESALE #483,11399,650 GATEWY CENTER DR,SAN DIEGO,92102.000000000000000,619-358-2303,,24,0,5.000000000000000,-117.116108822000000,32.712719085600000
87,331,EXXON #1034/NEW WEST PETROLEUM SD2,3304,1025 EUCLID AVE,SAN DIEGO,92114.000000000000000,916-443-0890,,28,0,5.000000000000000,-117.084650677000000,32.716447530000003
88,337,EXXON /APRO,12100,235 S 47TH ST,SAN DIEGO,92102.000000000000000,,,36,0,5.000000000000000,-117.089025561000000,32.705724482800001
89,347,EXXON-IMPERIAL#1035/NEW WEST PETROLEUM,2279,5109 IMPERIAL AVE,SAN DIEGO,92114.000000000000000,916-443-0890,,28,0,5.000000000000000,-117.084604192000000,32.704327657299999
90,510,SKYLINE CONVENIENCE STORE - K.JAMIL,2324,7346 SKYLINE DR,SAN DIEGO,92114.000000000000000,266-1464,,36,0,5.000000000000000,-117.040722997000000,32.704276018300000
91,517,SUNDANCE MARKET 2,2320,4689 MARKET ST,SAN DIEGO,92102.000000000000000,262-6627,,26,0,5.000000000000000,-117.093909614000000,32.711122192399998
92,641,HOMELAND PETROLEUM - IMPERIAL,11153,4704 IMPERIAL AVE,SAN DIEGO,92102.000000000000000,619 246 5078,,40,0,5.000000000000000,-117.093231324000000,32.704448665999998
93,653,SHELL OIL PRODUCTS US #135911,2368,3890 DIVISION ST,SAN DIEGO,92113.000000000000000,602-468-6944,,24,0,5.000000000000000,-117.110273781999990,32.682976804299997
94,4,PEARSON FORD FUELS,13880,4067 EL CAJON BLVD,SAN DIEGO,92105.000000000000000,,LISA PIETILA/BUSINESS MGR,0,2,6.000000000000000,-117.107857268999990,32.755033400800002
95,103,"7-ELEVEN #20174 /7-ELEVEN, INC",2151,6571 EL CAJON BLVD,SAN DIEGO,92115.000000000000000,464-2711,,12,0,6.000000000000000,-117.056875488000000,32.766892004600003
96,116,"7-ELEVEN #24155 /7-ELEVEN, INC",2156,1702 GATEWY DR,SAN DIEGO,92105.000000000000000,464-2711,,6,0,6.000000000000000,-117.108061527999990,32.723323733500003
97,173,ARCO AM/PM -HOME,15643,4333 HOME AVE,SAN DIEGO,92105.000000000000000,619 527-4834,,40,0,6.000000000000000,-117.101668910000000,32.726838708800003
98,189,ARCO AMPM #5609,1927,6098 UNIVERSITY AVE,SAN DIEGO,92115.000000000000000,,,24,0,6.000000000000000,-117.065005703000000,32.753082353800004
99,190,ARCO AMPM #598,2911,1817 EUCLID AVE,SAN DIEGO,92105.000000000000000,,,16,0,6.000000000000000,-117.084613842000000,32.724575086999998
100,208,ARCO-COLLEGE,13163,5111 COLLEGE AVE,SAN DIEGO,92115.000000000000000,619.286.3500,,30,0,6.000000000000000,-117.069568304000000,32.771006361200001
101,251,"CHEVRON #73 -G&M OIL CO., INC.",2502,3602 EL CAJON BLVD,SAN DIEGO,92104.000000000000000,714-375-4700,,42,0,6.000000000000000,-117.115501041000000,32.755614796899998
102,254,CHEVRON #94919,1154,3359 UNIVERSITY AVE,SAN DIEGO,92104.000000000000000,510-842-9002,,30,0,6.000000000000000,-117.121568102000000,32.748625594400004
103,265,CHEVRON-CITY HEIGHTS CHEVRON,12679,4055 UNIVERSITY AVE,SAN DIEGO,92105.000000000000000,619-269-8955,,40,0,6.000000000000000,-117.107828191000000,32.748958948999999
104,317,EMERALD OIL,11633,4142 ADAMS AVE,SAN DIEGO,92116.000000000000000,619-283-2301,,18,0,6.000000000000000,-117.105978002000000,32.763568418699997
105,326,EXXON #1029/NEW WEST PETROLEUM,4750,3252 UNIVERSITY AVE,SAN DIEGO,92104.000000000000000,916-443-0890,,28,0,6.000000000000000,-117.123680204000000,32.748753909999998
106,327,EXXON #1030/NEW WEST PETROLEUM S2,2134,4357 EL CAJON BLVD,SAN DIEGO,92105.000000000000000,916-443-0890,,22,0,6.000000000000000,-117.100513394000000,32.754681126800001
107,336,EXXON #57/ WORLD OIL,3687,4415 EL CAJON BLVD,SAN DIEGO,92115.000000000000000,562-928-0100,,48,0,6.000000000000000,-117.099464174000000,32.754825089800001
108,368,EXXONMOBIL OIL CORP. #13069,4123,3927 EL CAJON BLVD,SAN DIEGO,92105.000000000000000,619-280-5089,,48,0,6.000000000000000,-117.109878495000000,32.754753972400003
109,406,LA CIMA OIL #256898,4151,5040 EL CAJON BLVD,SAN DIEGO,92115.000000000000000,265-2379,,32,0,6.000000000000000,-117.086004659000000,32.757222322099999
110,427,PEARSON FORD FUELS,13880,4067 EL CAJON BLVD,SAN DIEGO,92105.000000000000000,,LISA PIETILA/BUSINESS MGR,38,0,6.000000000000000,-117.107513040000000,32.754340293299997
111,429,PENSKE TRUCK LEASING CO.,3588,4285 CAM DEL RIO S,SAN DIEGO,92108.000000000000000,,,3,0,6.000000000000000,-117.101905262000000,32.777696072300003
112,490,SHELL OIL PRODUCTS US #135932,2125,5401 UNIVERSITY AVE,SAN DIEGO,92105.000000000000000,602-468-6944,,26,0,6.000000000000000,-117.079131108000000,32.748354961899999
113,525,TEXACO-QUICK MART,10278,3105 FAIRMONT AVE,SAN DIEGO,92105.000000000000000,619-283-2533,,14,0,6.000000000000000,-117.100680705000000,32.738659278299998
114,532,THRIFTY #9571,2675,4330 ORANGE AVE,SAN DIEGO,92105.000000000000000,,,30,0,6.000000000000000,-117.101154929000000,32.753413406800000
115,544,ULTRA GAS,15118,3276 EL CAJON BLVD,SAN DIEGO,92104.000000000000000,,,24,0,6.000000000000000,-117.123322320000000,32.755632880900002
116,558,VALERO #3741,2501,3150 ADAMS AVE,SAN DIEGO,92116.000000000000000,559-583-3298,,18,0,6.000000000000000,-117.126270354000000,32.763591589199997
117,559,VALERO #3743,14714,4405 HOME AVE,SAN DIEGO,92105.000000000000000,,,18,0,6.000000000000000,-117.099130863000000,32.728847497300002
118,586,"7-ELEVEN #19987 /7-ELEVEN, INC",2150,3603 COLLEGE AVE,SAN DIEGO,92115.000000000000000,464-2711,,12,0,6.000000000000000,-117.058809676000000,32.746189360700001
119,672,ARCO AMPM #5216,5078,6301 EL CAJON BLVD,SAN DIEGO,92115.000000000000000,,,24,0,6.000000000000000,-117.062824057000000,32.763629012199999
120,673,ARCO-AMPM #5139,5098,3296 EL CAJON BLVD,SAN DIEGO,92104.000000000000000,,,24,0,6.000000000000000,-117.122399728999990,32.755410064400003
121,1,COSD AWM STANDARDS ENFORCEMENT,17000,5555 OVERLAND AVE,SAN DIEGO,0.000000000000000,858-614-2778,,0,1,10.000000000000000,-117.130771396000000,32.833548456099997
122,6,PREMIER FOOD SERV MGT GROUP,15843,4200 RUFFIN ROAD,SAN DIEGO,92123.000000000000000,,,0,1,10.000000000000000,-117.125105387000000,32.817758322000003
123,7,SDG&E/GAS OPS/C. CRISS,10228,5488 OVERLAND AVE,SAN DIEGO,92123.000000000000000,654-1105,,0,2,10.000000000000000,-117.131182331999990,32.833373926199997
124,71,76 CONOCOPHILLIPS#255237 c/o KAYO OIL C,2011,7807 BALBOA AVE,SAN DIEGO,92111.000000000000000,858-279-8002,,24,0,10.000000000000000,-117.154673874000000,32.821403324899997
125,72,76 CONOCOPHILLIPS#255295,2415,5790 BALBOA AVE,SAN DIEGO,92111.000000000000000,492-9039,,42,0,10.000000000000000,-117.178577356999990,32.820574154299997
126,81,76 PRODUCTS,15557,3766 CLAIREMONT MESA BLVD,SAN DIEGO,92117.000000000000000,B 619 518-75,,32,0,10.000000000000000,-117.206515838000000,32.828050920400003
127,93,"7-ELEVEN #13643 /7-ELEVEN, INC",5283,6615 LINDA VISTA RD,SAN DIEGO,92111.000000000000000,279-0994,,12,0,10.000000000000000,-117.174982568999990,32.773683523899997
128,117,"7-ELEVEN #25165 /7-ELEVEN, INC",3423,3385 SANDROCK RD,SAN DIEGO,92123.000000000000000,278-7861,,12,0,10.000000000000000,-117.139754919000000,32.804747857199999
129,130,"7-ELEVEN #32606/7-ELEVEN, INC",11211,9609 AERO DR,SAN DIEGO,92123.000000000000000,858 279 2911,,36,0,10.000000000000000,-117.121939970000000,32.807894199800003
130,131,7-ELEVEN #33100,12514,4080 CONVOY ST,SAN DIEGO,92111.000000000000000,,,36,0,10.000000000000000,-117.155194949000010,32.816837325700000
131,134,A.V. AUTO REPAIR AND GAS,14537,7611 LINDA VISTA RD,SAN DIEGO,92111.000000000000000,858 560-9285,"VUONG, ANH",24,0,10.000000000000000,-117.157566479000000,32.801077427800003
132,176,ARCO AMPM #1986,13747,6130 BALBOA AVE,SAN DIEGO,92111.000000000000000,,CROSSRD PETROLEUM,12,0,10.000000000000000,-117.175697308000000,32.820642834200001
133,185,ARCO AMPM #5363,7821,3770 MURPHY CANYON RD,SAN DIEGO,92123.000000000000000,,,24,0,10.000000000000000,-117.117562011999990,32.810817513400004
134,197,ARCO AM-PM-CLAIRMONT MESA,2120,8820 CLAIREMONT MESA BLVD,SAN DIEGO,92123.000000000000000,858-492-9325,,24,0,10.000000000000000,-117.137875428000000,32.831858641499998
135,203,ARCO-BALBOA ARCO STATION,4626,7731 BALBOA AVE,SAN DIEGO,92111.000000000000000,619-541-2576,,28,0,10.000000000000000,-117.158243299000010,32.820946647500001
136,211,ARCO-GOLDEN LINA,4150,4498 CLAIREMONT MESA BLVD,SAN DIEGO,92117.000000000000000,858-270-7755,,24,0,10.000000000000000,-117.195249836000000,32.834804903500000
137,213,ARCO-McBRIDES MISSION VALLEY,2537,915 CAM DEL RIO S,SAN DIEGO,92108.000000000000000,619-607-8000,,16,0,10.000000000000000,-117.155306928000000,32.764101736699999
138,214,ARCO-MINI MART-WILD CAT 007/CALGARY EN,3738,5405 CLAIREMONT MESA BLVD,SAN DIEGO,92117.000000000000000,858-279-6661,,24,0,10.000000000000000,-117.175299241999990,32.834025287700001
139,215,ARCO-MORENA SERVICE STATION,11937,2505 MORENA BLVD,SAN DIEGO,92110.000000000000000,619-276-3177,,36,0,10.000000000000000,-117.205599518000000,32.788622487100000
140,216,ARCO-MORENA SMOG PROS,11425,1550 MORENA BLVD,SAN DIEGO,92110.000000000000000,619-275-0777,,24,0,10.000000000000000,-117.206296386000010,32.774586541600002
141,225,BOB'S GAS,1986,3377 SANDROCK RD,SAN DIEGO,92123.000000000000000,619-279-2540,,24,0,10.000000000000000,-117.139612997000000,32.804229766500001
142,248,"CHEVRON #54/G&M OIL CO., INC.",3365,8110 BALBOA AVE,SAN DIEGO,92111.000000000000000,714-375-4700,,78,0,10.000000000000000,-117.148372395000000,32.822404796100002
143,255,CHEVRON #94991,1929,2290 CAM DEL RIO NO,SAN DIEGO,92108.000000000000000,510-842-9002,,18,0,10.000000000000000,-117.140896670000000,32.771558555699997
144,264,CHEVRON-BARRY'S,11950,7070 CLAIREMONT MESA BLVD,SAN DIEGO,92111.000000000000000,858 278-3841,,42,0,10.000000000000000,-117.164251050999990,32.833055905000002
145,279,CIRCLE K - #5095,7133,4360 GENESEE AVE,SAN DIEGO,92117.000000000000000,602-728-3593,,12,0,10.000000000000000,-117.184289774000010,32.822693109100001
146,289,"CITGO-SUPER 7 #19273/7-ELEVEN, INC",2159,7801 CLAIREMONT MESA BLVD,SAN DIEGO,92111.000000000000000,465-2101,,32,0,10.000000000000000,-117.152870883000010,32.832387908000001
147,291,CLAIREMONT AUTO CARE,13579,4495 CLAIREMONT MESA BLVD,SAN DIEGO,92117.000000000000000,619-972-6566,,18,0,10.000000000000000,-117.195191106000000,32.834186606999999
148,293,CLAIREMONT EQUIPMENT RENTALS,774,4726 CONVOY ST,SAN DIEGO,92111.000000000000000,278-8351,,2,0,10.000000000000000,-117.154550967000010,32.827499416499997
149,295,COSTCO WHOLESALE #401/ATTN:LICENSING,457,4605 MORENA BLVD,SAN DIEGO,92117.000000000000000,,,32,0,10.000000000000000,-117.225399051000000,32.822348098699997
150,299,COSTCO WHOLESALE CORP. #488,11380,2345 FENTON PKWY,SAN DIEGO,92108.000000000000000,619-358-4003,,32,0,10.000000000000000,-117.128913535000000,32.779906830000002
151,309,COUNTY OF SAN DIEGO/OPERATIONS CENTER,10346,5555 OVERLAND AVE,SAN DIEGO,92123.000000000000000,,,6,0,10.000000000000000,-117.130879073000000,32.835086021000002
152,312,"CROWNAIR/AIR 88, INC.",5694,3753 JOHN J MONTGOMERY DR,SAN DIEGO,92123.000000000000000,619-277-1453,,2,0,10.000000000000000,-117.139658268999990,32.815152719300002
153,328,EXXON #1031/NEW WEST PETROLEUMSD1,3057,7737 BALBOA AVE,SAN DIEGO,92111.000000000000000,916-443-0890,,28,0,10.000000000000000,-117.156471973000000,32.821368148799998
154,329,EXXON #1032/NEW WEST PETROLEUM SD2,3117,3860 KEARNY MESA RD,SAN DIEGO,92111.000000000000000,916-443-0890,,32,0,10.000000000000000,-117.152120810000000,32.813995513400002
155,330,EXXON #1033/NEW WEST PETROLEUM SD1,1984,6949 LINDA VISTA RD,SAN DIEGO,92111.000000000000000,916-443-0890,,32,0,10.000000000000000,-117.170031914000010,32.786080623499998
156,350,EXXONMOBIL OIL CORP #10910,11487,8380 CLAIREMONT MESA BLVD,SAN DIEGO,92111.000000000000000,858-279-9343,,38,0,10.000000000000000,-117.143894317999990,32.833246153399998
157,358,EXXONMOBIL OIL CORP. #10988,14806,6066 BALBOA AVE,SAN DIEGO,92111.000000000000000,858 279-2062,,30,0,10.000000000000000,-117.176570729999990,32.820588183799998
158,366,EXXONMOBIL OIL CORP. #12721,2014,5494 MISSION CENTER RD,SAN DIEGO,92108.000000000000000,619-297-1534,,24,0,10.000000000000000,-117.154491491000000,32.774027799199999
159,373,EZ-HAUL TRUCK RENTAL,5585,5624 KEARNY VILLA RD,SAN DIEGO,92123.000000000000000,858-277-1440,,2,0,10.000000000000000,-117.136233550000000,32.837246523300003
160,375,FAST FUEL CAR CARE CENTER,2341,4505 CLAIREMONT MESA BLVD,SAN DIEGO,92117.000000000000000,619-571-9090,,18,0,10.000000000000000,-117.194369145000000,32.834194268499999
161,382,GIBBS FLYING SERVICE-STATIONARY METERS,13487,8906 AERO DR,SAN DIEGO,92123.000000000000000,,,1,0,10.000000000000000,-117.135913994000010,32.809054912500002
162,391,HAWTHORNE POWER SYSTEMS,0,8050 OTHELLO,SAN DIEGO,92111.000000000000000,,,1,0,10.000000000000000,-117.150844174000000,32.818059250099999
163,396,HAZARD CENTER AUTOMART,14407,7698 FRIARS RD,SAN DIEGO CA,92108.000000000000000,619 296-2566,,24,0,10.000000000000000,-117.158015338000000,32.772807690999997
164,410,MARVIN K. BROWN AUTO CENTER,4166,1441 CAM DEL RIO S,SAN DIEGO,92108.000000000000000,619-291-2040,,1,0,10.000000000000000,-117.148944395000000,32.765571982099999
165,411,MEGA-FUEL & SUBWY,14366,7153 CLAIREMONT MESA BLVD,SAN DIEGO,92111.000000000000000,858 565-7133,,40,0,10.000000000000000,-117.163086860000010,32.832239961799999
166,443,ROUTE 66,15050,6936 LINDA VISTA RD,SAN DIEGO,92111.000000000000000,858-505-0081,GREG LAMB,27,0,10.000000000000000,-117.170698413000000,32.786340555800003
167,444,RYDER TRUCK RENTAL,5579,5345 OVERLAND AVE,SAN DIEGO,92123.000000000000000,565-8517,,3,0,10.000000000000000,-117.129974184999990,32.832498567499997
168,466,SHELL OIL PRODUCTS US #121448,1925,6125 BALBOA AVE,SAN DIEGO,92111.000000000000000,602-468-6944,,28,0,10.000000000000000,-117.175773815000000,32.819870283800000
169,469,SHELL OIL PRODUCTS US #121557,4934,7785 CLAIREMONT MESA BLVD,SAN DIEGO,92111.000000000000000,602-468-6944,,28,0,10.000000000000000,-117.153738426000000,32.832382249200002
170,472,SHELL OIL PRODUCTS US #121801,3218,5465 MISSION CENTER RD,SAN DIEGO,92108.000000000000000,602-468-6944,,32,0,10.000000000000000,-117.153539400000000,32.773981177099998
171,487,SHELL OIL PRODUCTS US #135923,2542,1330 MORENA BLVD,SAN DIEGO,92110.000000000000000,602-468-6944,,30,0,10.000000000000000,-117.202713734000000,32.772120978799997
172,488,SHELL OIL PRODUCTS US #135927,3118,7647 BALBOA AVE,SAN DIEGO,92111.000000000000000,602-468-6944,,30,0,10.000000000000000,-117.159437459000000,32.821373829899997
173,499,SHELL-52 & CONVOY,9953,7740 COPLEY PARK PL,SAN DIEGO,92111.000000000000000,619-234-7989,,52,0,10.000000000000000,-117.152812256000000,32.836670193499998
174,515,"STONECREST GAS AND WASH, INC.",14670,3690 MURPHY CANYON RD,SAN DIEGO,92123.000000000000000,858 874-3119,,52,0,10.000000000000000,-117.116469037000000,32.808564871999998
175,521,SYSCO PETROLEUM,14618,2777 HEALTH CENTER DR,SAN DIEGO,92123.000000000000000,619-920-1188,,28,0,10.000000000000000,-117.156540060000000,32.793049681699998
176,540,THRIFTY/ ARCO #9576,2681,4202 CLAIREMONT MESA BLVD,SAN DIEGO,92117.000000000000000,,,24,0,10.000000000000000,-117.202083937000000,32.831390958400000
177,546,UNITED RENTALS,854,5580 KEARNY VILLA RD,SAN DIEGO,92123.000000000000000,565-7122,,2,0,10.000000000000000,-117.137084689000010,32.836415861299997
178,557,VALERO #3740,2495,1083 MORENA BLVD,SAN DIEGO,92110.000000000000000,559-583-3298,,24,0,10.000000000000000,-117.199366716000000,32.768257274500002
179,565,VALERO-EBK PETROLEUM INC,13170,5345 KEARNEY VILLA RD,SAN DIEGO,92123.000000000000000,,,32,0,10.000000000000000,-117.140553623000000,32.830302253500001
180,654,SHELL OIL PRODUCTS US #135920,2186,2606 CLAIREMONT DR,SAN DIEGO,92117.000000000000000,602-468-6944,,24,0,10.000000000000000,-117.202919065000000,32.790800447199999
181,671,ARCO - FASHION VALLEY AM/PM,2364,6899 FRIARS RD,SAN DIEGO,92108.000000000000000,619-295-1169,,24,0,10.000000000000000,-117.171744066000000,32.768525561899999
182,732,CHEVRON - #90158,3034,755 HOTEL CIRCLE,SAN DIEGO,92108.000000000000000,510-842-9002,,24,0,10.000000000000000,-117.169873568000000,32.759971352299999
183,67,76 CONOCOPHILLIPS#250834,3361,2804 GARNET AVE,SAN DIEGO,92109.000000000000000,274-7600,,36,0,11.000000000000000,-117.218677939000000,32.806449902300002
184,74,76 CONOCOPHILLIPS#256251,2340,3805 INGRAHAM ST,SAN DIEGO,92109.000000000000000,858-272-6171,,24,0,11.000000000000000,-117.237234102000000,32.789183659199999
185,105,"7-ELEVEN #20337 /7-ELEVEN, INC",2158,2803 GARNET AVE,SAN DIEGO,92109.000000000000000,273-9857,,20,0,11.000000000000000,-117.218397035000000,32.805914413399996
186,146,ARCO,13511,1875 GRAND AVE,SAN DIEGO,92109.000000000000000,909-754-8038,,24,0,11.000000000000000,-117.235004319000000,32.798711404899997
187,154,ARCO #1785 - ALAN'S SUNSHINE,14182,985 TURQUOISE ST,SAN DIEGO,92109.000000000000000,858-539-3992,ALAN B. FATOOHI,24,0,11.000000000000000,-117.255846909000000,32.809136905300001
188,259,CHEVRON -LA JOLLA CHEVRON,14434,7475 LA JOLLA BLVD,LA JOLLA,92037.000000000000000,858 454-5909,"MEDEIROS, CHRIS R.",24,0,11.000000000000000,-117.278086687000000,32.838991204899997
189,272,CHEVRON-JOSEPH RANDAZZO,11948,1575 GARNET AVE,SAN DIEGO,92109.000000000000000,858-273-6621,,30,0,11.000000000000000,-117.241106703000000,32.799482314899997
190,311,CROWN POINT GAS,15352,3804 INGRAHAM ST,SAN DIEGO,92109.000000000000000,,,30,0,11.000000000000000,-117.238003298000000,32.789006051000001
191,314,DANA LANDING FUEL DOCK,1458,2590 INGRAHAM ST,SAN DIEGO,92109.000000000000000,619-226-2929,,4,0,11.000000000000000,-117.235182464999990,32.768384705700001
192,319,ENCON-LA JOLLA SHORES/KA MANAGEMENT INC,10685,2204 TORREY PINES RD,LA JOLLA,92037.000000000000000,619-541-2950,,40,0,11.000000000000000,-117.253814565000000,32.850836759400003
193,356,EXXONMOBIL OIL CORP. #10510,13986,2780 GARNET AVE,SAN DIEGO,92109.000000000000000,858 273-7624,"ODISH, PAUL",18,0,11.000000000000000,-117.219456569000000,32.806225284400000
194,407,LA JOLLA 76,3426,801 PEARL ST,LA JOLLA,92037.000000000000000,454-7600,,28,0,11.000000000000000,-117.274493035000010,32.839756633500002
195,423,P.B. SPIRIT GAS,14408,1885 GARNET AVE,SAN DIEGO,92109.000000000000000,619 917-2821,,24,0,11.000000000000000,-117.235623295000000,32.800659986900001
196,424,PACIFIC BEACH FUELS,2979,4404 INGRAHAM ST,SAN DIEGO,92109.000000000000000,858-274-6834,,24,0,11.000000000000000,-117.240736996000000,32.798150510600003
197,447,SHELL,13387,2075 BALBOA AVE,SAN DIEGO,92109.000000000000000,858 272-2844,,36,0,11.000000000000000,-117.231737425000010,32.800064614000000
198,528,THRIFTY #9561,12484,833 TURQUOISE ST,SAN DIEGO,92109.000000000000000,,,30,0,11.000000000000000,-117.258841984000000,32.808491627599999
199,556,VALERO #3739/,2494,4342 INGRAHAM ST,SAN DIEGO,92109.000000000000000,559-583-3298,,36,0,11.000000000000000,-117.240605751999990,32.797476798300004
200,574,VONS GAS MARKET EXPRESS #216,16100,1680 GARNET AVE,SAN DIEGO,92109.000000000000000,858 272-5359,,40,0,11.000000000000000,-117.239438097000000,32.800428828100003
201,752,FUEL DOCK,4306,1551 W MISSION BAY DR,SAN DIEGO,92109.000000000000000,222-1164,JOHN TAYLOR,7,0,11.000000000000000,-117.240080839000000,32.765559820299998
202,143,APRO LLC #35,15867,3860 GOVERNOR DR,SAN DIEGO,92122.000000000000000,619-421-1378,,24,0,12.000000000000000,-117.205317957999990,32.855057963400000
203,258,"CHEVRON -COSTA VERDE CAR WASH, INC.",12397,8505 COSTA VERDE BLVD,SAN DIEGO,92122.000000000000000,,,48,0,12.000000000000000,-117.214924769000010,32.867721354099999
204,333,EXXON #1038/NEW WEST PETROLEUM SD1,1987,3918 GOVERNOR DR,SAN DIEGO,92122.000000000000000,916-443-0890,,28,0,12.000000000000000,-117.204259384000000,32.855035225400002
205,360,EXXONMOBIL OIL CORP. #11268,3199,3861 GOVERNOR DR,SAN DIEGO,92122.000000000000000,858-450-9474,,36,0,12.000000000000000,-117.204993132000000,32.854232811800003
206,362,EXXONMOBIL OIL CORP. #11686,2811,3233 LA JOLLA VILLAGE DR,LA JOLLA,92037.000000000000000,453-8153,,50,0,12.000000000000000,-117.233339335000000,32.871240641999997
207,547,"UNIVERSITY CITY SERVICE CENTER, INC.",13895,3901 GOVERNOR DR,SAN DIEGO,92122.000000000000000,,,24,0,12.000000000000000,-117.204067557000000,32.854312113399999
208,8,SDG&E/GAS OPS/C. CRISS,10225,6875 CONSOLIDATED WAY,SAN DIEGO,92121.000000000000000,654-1105,,0,2,13.000000000000000,-117.167098888000000,32.877698708300002
209,57,4S GASOLINE DEPOT.,15513,6795 MIRA MESA BLVD,SAN DIEGO,92121.000000000000000,858-554-0460,,36,0,13.000000000000000,-117.171684279999990,32.907128548899998
210,118,7-ELEVEN #25629 /7-ELEVEN,3735,11205 CAM RUIZ,SAN DIEGO,92126.000000000000000,465-2101,,24,0,13.000000000000000,-117.143569924000000,32.925402318499998
211,128,"7-ELEVEN #32131/7-ELEVEN, INC",10061,8261 GOLD COAST DR,SAN DIEGO,92126.000000000000000,214-841-6704,,24,0,13.000000000000000,-117.145586342000000,32.904996180900000
212,138,AMERICANA CAR WASH,7309,9510 SCRANTON RD,SAN DIEGO,92121.000000000000000,587-2778,,16,0,13.000000000000000,-117.202203461000000,32.893903558100000
213,177,ARCO AMPM #5181,6188,6616 MIRAMAR RD,SAN DIEGO,92121.000000000000000,,,24,0,13.000000000000000,-117.171968136000000,32.878103109800001
214,188,ARCO AMPM #5441,437,9720 CARROLL CENTRE RD,SAN DIEGO,92126.000000000000000,,,36,0,13.000000000000000,-117.122479629000000,32.899471712299999
215,191,ARCO AMPM #6195,2272,9320 MIRA MESA BLVD,SAN DIEGO,92126.000000000000000,858-566-1944,,36,0,13.000000000000000,-117.124435815000000,32.917634767999999
216,234,CHEVRON,13486,13985 TORREY DEL MAR DR,SAN DIEGO,92130.000000000000000,,,36,0,13.000000000000000,-117.161578420000000,32.970138196500002
217,245,CHEVRON #205126,12761,9936 MERCY RD,SAN DIEGO,92129.000000000000000,858-271-8759,,36,0,13.000000000000000,-117.112882197999990,32.937732270799998
218,256,CHEVRON /DEL MAR HIGHLANDS CAR WASH,13408,12889 EL CAM REAL,SAN DIEGO,92130.000000000000000,,KAREN FORBES,36,0,13.000000000000000,-117.233651843999990,32.951925382699997
219,275,CHEVRON-SCRIPPS MIRAMAR CAR WASH,1908,9650 MIRAMAR RD,SAN DIEGO,92126.000000000000000,619-234-7989,,34,0,13.000000000000000,-117.121051820999990,32.894291561300001
220,281,CIRCLE K - #8688,6757,10520 CAM RUIZ,MIRA MESA,92126.000000000000000,602-278-3593,,12,0,13.000000000000000,-117.145824680999990,32.908722807399997
221,290,"CITGO-SUPER 7 #19548/7-ELEVEN, INC",2160,13801 MANGO DR,DEL MAR,92014.000000000000000,278-2101,,24,0,13.000000000000000,-117.247095556999990,32.949152330099999
222,357,EXXONMOBIL OIL CORP. #10637,11414,9790 MIRAMAR RD,SAN DIEGO,92126.000000000000000,858-536-8862,,36,0,13.000000000000000,-117.118729832000000,32.894211377500000
223,393,HAWTHORNE RENT-IT SERVICE,2738,7625 CARROLL RD,SAN DIEGO,92121.000000000000000,566-9966,,2,0,13.000000000000000,-117.158237723000000,32.884141947300002
224,397,HERTZ EQUIPMENT RENTAL,6890,8014 MIRAMAR RD,SAN DIEGO,92126.000000000000000,566-5500,,1,0,13.000000000000000,-117.146994989000010,32.888490776099999
225,401,HOMELAND PETROLEUM-MIRA MESA,4216,8340 MIRA MESA BLVD,SAN DIEGO,92126.000000000000000,566-8275,,38,0,13.000000000000000,-117.144276158000000,32.913290717999999
226,428,PENSKE TRUCK LEASING,14001,8750 PRODUCTION AVE,SAN DIEGO,92121.000000000000000,610 775-6471,,2,0,13.000000000000000,-117.166211455000000,32.884404657300003
227,432,PLAVAN COMMERCIAL FUELING,13205,9690 BLACK MTN RD,SAN DIEGO,92126.000000000000000,,,3,0,13.000000000000000,-117.123230690000000,32.898824275499997
228,460,SHELL OIL PRODUCTS US #121073,2066,3015 DEL MAR HEIGHTS RD,SAN DIEGO,92130.000000000000000,602-468-6944,,40,0,13.000000000000000,-117.241045775000000,32.950648751599999
229,491,SHELL OIL PRODUCTS US #135933,2840,9840 MIRAMAR RD,SAN DIEGO,92126.000000000000000,602-468-6944,,48,0,13.000000000000000,-117.117799972000000,32.894071195000002
230,492,SHELL OIL PRODUCTS US #135934,4044,8345 MIRA MESA BLVD,SAN DIEGO,92126.000000000000000,602-468-6944,,44,0,13.000000000000000,-117.144559306000000,32.912295770800000
231,493,SHELL OIL PRODUCTS US #135935,2142,3060 CARMEL VALLEY RD,SAN DIEGO,92130.000000000000000,602-468-6944,,30,0,13.000000000000000,-117.240028811000000,32.933583033500000
232,494,SHELL OIL PRODUCTS US #135938,337,9490 MIRA MESA BLVD,SAN DIEGO,92126.000000000000000,602-468-6944,,48,0,13.000000000000000,-117.121201636000000,32.917641470900001
233,497,SHELL OIL PRODUCTS US#121634,10674,8920 MIRAMAR,SAN DIEGO,92126.000000000000000,619 521-3200,,42,0,13.000000000000000,-117.133031849000010,32.894068101499997
234,498,SHELL -VIPER WY SHELL,14491,6695 MIRA MESA BLVD,SAN DIEGO,92121.000000000000000,510-293-9150,SAROJ GOYAL,40,0,13.000000000000000,-117.174648530000000,32.905966462899997
235,500,SHELL-ACACIA GASOLINE & CAR WASH OF C.V,11148,3861 VALLLEY CENTRE DR,SAN DIEGO,92130.000000000000000,858-792-9009,,52,0,13.000000000000000,-117.231002919999990,32.937302962300002
236,507,SKS INC.,2708,6350 MIRAMAR RD,SAN DIEGO,92121.000000000000000,858-530-1193,,8,0,13.000000000000000,-117.177447234000000,32.878298147700001
237,509,"SKS,INC",5263,9270 DOWDY DR,SAN DIEGO,92126.000000000000000,858-530-1193,,16,0,13.000000000000000,-117.147296592000000,32.890274101400003
238,580,"76 MIRAMAR AUTOPORT 76, INC.",2841,5706 MIRAMAR RD,SAN DIEGO,92121.000000000000000,858-450-1620,THOMAS D. DRAKE/760-815-5808,41,0,13.000000000000000,-117.185112690000000,32.877487965599997
239,600,ARCO AMPM #5404,1540,3170 CARMEL VALLEY RD,SAN DIEGO,92130.000000000000000,,,36,0,13.000000000000000,-117.238422997000000,32.934399141000000
240,692,CHEVRON - #91214,7027,8210 CAM SANTA FE,SAN DIEGO,92121.000000000000000,510-842-9002,,36,0,13.000000000000000,-117.172702005000000,32.878932528400000
241,702,PLAVAN COMMERCIAL FUELING  INC.,11756,9147 REHCO RD,SAN DIEGO,92121.000000000000000,800-499-4645,,8,0,13.000000000000000,-117.172269633000000,32.889285564500000
242,751,EXXONMOBIL OIL CORP. #19104,16151,13007 CAM DEL SUR,SAN DIEGO,92129.000000000000000,,,36,0,13.000000000000000,-117.152767494000000,32.957010602099999
243,766,RANCHO CAR WASH/VIGNATO DEV.CORP*,2528,2661 VIA DE LA VALLE,DEL MAR,92014.000000000000000,619-259-4353,,36,0,13.000000000000000,-117.248882116000000,32.980659254000003
244,769,SHELL OIL PRODUCTS US #120907,2544,2205 VIA DE LA VALLE,DEL MAR,92014.000000000000000,602-468-6944,,28,0,13.000000000000000,-117.255432608000010,32.979405614900003
245,18,"CARMEL MTN RANCH CAR WASH, INC",12396,11030 RANCHO CARMEL DR,SAN DIEGO,92128.000000000000000,858-451-1212,,48,0,14.000000000000000,-117.082664023000010,32.977265982600002
246,34,CHEVRON CAR WASH / 4S RANCH-OWNER,14414,16629 DOVE CANYON RD,SAN DIEGO,92127.000000000000000,858 613-1315,,36,0,14.000000000000000,-117.111449902999990,33.014931985499999
247,40,HAWTHORNE MACHINERY COMPANY,0,16945 CAM SAN BERNARDO,SAN DIEGO,92127.000000000000000,674-7127,,2,0,14.000000000000000,-117.101983850000000,33.013869619499999
248,48,SHELL OIL PRODUCTS US #120655,10506,9205 TWIN TRAILS DR,SAN DIEGO,92129.000000000000000,602-468-6944,,34,0,14.000000000000000,-117.128512877000010,32.956496849799997
249,60,76 - APC OIL INC.,15126,13012 POMERADO RD,POWY,92064.000000000000000,858-748-7603,TONY THOMAS,24,0,14.000000000000000,-117.062849717000010,32.952148376200000
250,84,76 UNOCAL CONOCOPHILLIPS#256834,3567,12860 RANCHO PENASQUITOS BLVD,SAN DIEGO,92129.000000000000000,566-5980,,32,0,14.000000000000000,-117.107918131999990,32.950763773100000
251,91,"7-ELEVEN #13624 /7-ELEVEN, INC",2504,13626 POMERADO RD,POWY,92064.000000000000000,503-977-7713,,12,0,14.000000000000000,-117.062920324000000,32.961722264499997
252,183,ARCO AMPM #5296,7294,12610 SABRE SPRINGS PKWY,SAN DIEGO,92128.000000000000000,,,24,0,14.000000000000000,-117.096338879000000,32.948218389499999
253,202,ARCO/RANCHO BERNARDO AM/PM,11605,11891 RANCHO BERNARDO RD,SAN DIEGO,92128.000000000000000,858-487-1565,,24,0,14.000000000000000,-117.074836682000000,33.022514733000001
254,260,CHEVRON -RANCHO BERNARDO CAR WASH LLC*,2345,16757 BERNARDO CENTER DR,SAN DIEGO,92128.000000000000000,619-234-7989,RANCHO BERNARDO CAR WASH LLC,36,0,14.000000000000000,-117.074364891000000,33.018653514000000
255,262,CHEVRON STATION #96929,3043,11095 CARMEL MTN RD,SAN DIEGO,92129.000000000000000,,,36,0,14.000000000000000,-117.090088601000010,32.977085817599999
256,334,EXXON #1039/NEW WEST PETROLEUM SD1,5234,12929 RANCHO PENASQUITOS BLVD,SAN DIEGO,92129.000000000000000,916-443-0890,,42,0,14.000000000000000,-117.107115798000000,32.952227742300003
257,352,EXXONMOBIL OIL CORP #11464,2883,11898 RANCHO BERNARDO RD,SAN DIEGO,92128.000000000000000,858-487-4496,,48,0,14.000000000000000,-117.074851915000000,33.023268401099998
258,369,EXXONMOBIL OIL CORP. #15979,5013,12849 RANCHO PENASQUITOS BLVD,SAN DIEGO,92129.000000000000000,619-541-2950,,52,0,14.000000000000000,-117.106827376000000,32.950229523499999
259,390,HAWTHORNE  LIFT SYSTEMS,12062,10930 WILLOW CT,SAN DIEGO,92127.000000000000000,858-674-7000,,2,0,14.000000000000000,-117.099117594000010,33.014000275900003
260,412,MOBIL FAIRBANKS RANCH MOBIL,11082,16095 SAN DIEGUITO RD,RANCHO SANTA,92067.000000000000000,619-759-9184,,40,0,14.000000000000000,-117.197009820999990,32.991432026900000
261,454,SHELL OIL PRODUCTS US #120561,9710,12174 CARMEL MTN RD,SAN DIEGO,92128.000000000000000,602-468-6944,,40,0,14.000000000000000,-117.076000750000010,32.985321705099999
262,495,SHELL OIL PRODUCTS US #135939,458,11815 CARMEL MTN RD,SAN DIEGO,92128.000000000000000,602-468-6944,,36,0,14.000000000000000,-117.077438544000000,32.980431829600001
263,694,CIRCLE K/76 #2705703,13840,17011 W BERNARDO DR,SAN DIEGO,92127.000000000000000,281-293-1000,,36,0,14.000000000000000,-117.081816731999990,33.024191037199998
264,748,EXXONMOBIL OIL CORP #10365,5926,9370 PASEO MONTALBAN,SAN DIEGO,92129.000000000000000,538-6751,,42,0,14.000000000000000,-117.123705050000000,32.959558984700003
265,771,SHELL OIL PRODUCTS US #135919,2037,16998 W BERNARDO DR,SAN DIEGO,92127.000000000000000,602-468-6944,,30,0,14.000000000000000,-117.082673751000000,33.023454135400002
266,5,POWAY SCHOOL DIST,10227,13626 TWIN PEAKS RD,POWAY,92064.000000000000000,654-1105,,0,2,15.000000000000000,-117.035704692000000,32.978495395200000
267,35,CIRCLE K/76 #2702971,13835,14147 TWIN PEAKS RD,POWY,92064.000000000000000,281-293-1000,,12,0,15.000000000000000,-117.023745072000000,32.977706849599997
268,122,"7-ELEVEN #26182 /7-ELEVEN, INC",5101,14225 POWY RD,SAN DIEGO,92064.000000000000000,278-7861,,12,0,15.000000000000000,-117.023420888000000,32.956618435599999
269,164,ARCO AM/PM,14368,12033A SCRIPPS SUMMIT DR,SAN DIEGO,92131.000000000000000,858-621-6337,,54,0,15.000000000000000,-117.100236069999990,32.937946994999997
270,167,ARCO AM/PM,13591,12805 POWY RD,POWY,92064.000000000000000,714-709-3367,,24,0,15.000000000000000,-117.053528927000000,32.956184284899997
271,223,BJ'S RENTALS,15278,13044 POWY RD,POWY,92064.000000000000000,858 735-2723,STEVE VAN CURA,2,0,15.000000000000000,-117.048154199000000,32.957210934000003
272,270,"CHEVRON-G & M OIL CO., LLC #112",12701,12410 POWY RD,POWY,92064.000000000000000,858 513-9143,,34,0,15.000000000000000,-117.062121422000000,32.952181330899997
273,298,COSTCO WHOLESALE #775,14468,12155 TECH CENTER DR,POWY,92064.000000000000000,425-313-8100,,32,0,15.000000000000000,-117.033054926999990,32.936720641999997
274,339,EXXON /APRO LLC #23,12099,12462 POWY RD,POWY,92064.000000000000000,,,38,0,15.000000000000000,-117.060552726000000,32.952639956100001
275,353,EXXONMOBIL OIL CORP #13203,4163,13556 POWY RD,POWY,92064.000000000000000,858-748-7489,,24,0,15.000000000000000,-117.037034680000000,32.956753471699997
276,371,EXXONMOBIL OIL CORP. #17970,11131,10555 SCRIPPS POWYY PKWY,SAN DIEGO,92131.000000000000000,858-566-9629,,38,0,15.000000000000000,-117.100270133000000,32.936919507799999
277,439,RANCHO BERNARDO SHELL,15837,12507 RANCHO BERNARDO RD,SAN DIEGO,92128.000000000000000,858-487-2505,,28,0,15.000000000000000,-117.060398881000000,33.018344118300000
278,452,SHELL OF POWY,13781,13341 POWY RD,POWY,92064.000000000000000,858-748-6504,GABRIEL,28,0,15.000000000000000,-117.041502024000000,32.956138847600002
279,455,SHELL OIL PRODUCTS US #120574,7944,12507 RANCHO BERNARDO RD,SAN DIEGO,92128.000000000000000,858-487-2505,,28,0,15.000000000000000,-117.060398881000000,33.018344118300000
280,553,USA GASOLINE /PALISADES GAS & WASH #851,14525,12010 SCRIPPS HIGHLAND DR,SAN DIEGO,92131.000000000000000,818 856-9200,,42,0,15.000000000000000,-117.108260636000000,32.936761919500000
281,607,CHEVRON  # 207541,11231,12295 SCRIPPS POWY PKWY,POWY,92064.000000000000000,858-621-6324,,36,0,15.000000000000000,-117.060628476999990,32.934517661299999
282,657,"SKS, INC.",10722,13910 DANIELSON ST,POWY,92064.000000000000000,858-530-1193,,28,0,15.000000000000000,-117.030413554000010,32.940615451500001
283,684,EXXONMOBIL OIL CORP. #11788,7425,14863 POMERADO RD,POWY,92064.000000000000000,486-9466,ANDREA GARCIA,38,0,15.000000000000000,-117.062167114000000,32.981999936999998
284,685,"GOLDEN STATE GASOLINE, INC.",4954,13394 POWY RD,POWY,92064.000000000000000,619-593-6652,,24,0,15.000000000000000,-117.041219583000000,32.956582604600001
285,690,ULTRA FUEL,2973,12365 POWY RD,POWY,92064.000000000000000,858 748-1554,,40,0,15.000000000000000,-117.063787562000000,32.951675344199998
286,162,ARCO #9761,2724,9393 KEARNY MESA RD,SAN DIEGO,92126.000000000000000,,,34,0,16.000000000000000,-117.117971384000000,32.893283918500003
287,36,"COSBY OIL CO., INC.",4843,6225 FAIRMOUNT AVE,SAN DIEGO,92120.000000000000000,619-280-6885,,27,0,17.000000000000000,-117.100993453000000,32.789059868300001
288,86,76-ATTISHA OIL,13601,5194 WARING RD,SAN DIEGO,92120.000000000000000,,,24,0,17.000000000000000,-117.081450591000010,32.792525966500001
289,126,"7-ELEVEN #27623 /7-ELEVEN, INC",5726,6401 MISSION GORGE RD,SAN DIEGO,92120.000000000000000,282-3647,,12,0,17.000000000000000,-117.097333572000000,32.790155587699999
290,149,ARCO -  #9757,2702,8787 LAKE MURRAY BLVD,SAN DIEGO,92119.000000000000000,,,24,0,17.000000000000000,-117.009955619000000,32.802647389000001
291,170,ARCO AM/PM #01790 MISSION GORGE,2344,6110 MISSION GORGE RD,SAN DIEGO,92120.000000000000000,619-283-2400,,24,0,17.000000000000000,-117.098120085000010,32.785326920199999
292,222,BJ'S RENTALS,15276,7585 MISSION GORGE RD,SAN DIEGO,92120.000000000000000,,STEVE VAN CURA,2,0,17.000000000000000,-117.074948050000000,32.807534484100003
293,241,CHEVRON #108/G & M OIL CO,12637,8780 LAKE MURRAY BLVD,SAN DIEGO,92119.000000000000000,,,28,0,17.000000000000000,-117.011057389000000,32.802665008900000
294,242,"CHEVRON #138, G & M OIL CO",15259,5103 WARING RD,SAN DIEGO,92120.000000000000000,714 375-4700,,28,0,17.000000000000000,-117.082204781000000,32.790724740999998
295,250,"CHEVRON #63/G&M OIL CO., INC.",5668,7448 JACKSON DR,SAN DIEGO,92119.000000000000000,714-375-4700,,28,0,17.000000000000000,-117.046120096000000,32.803353633400000
296,267,CHEVRON-DEL CERRO,13403,6301 DEL CERRO BLVD,SAN DIEGO,92120.000000000000000,619-583-1122,DARRYL GINOS,48,0,17.000000000000000,-117.061664745000000,32.783209338399999
297,324,EXXON #1026/NEW WEST PETROLEUM S2,7613,8815 LAKE MURRAY BLVD,SAN DIEGO,92119.000000000000000,916-443-0890,,28,0,17.000000000000000,-117.009521875000000,32.803296641400003
298,332,EXXON #1037/NEW WEST PETROLEUM SD2,2725,6953 NAVAJO RD,SAN DIEGO,92119.000000000000000,916-443-0890,,20,0,17.000000000000000,-117.045502565000010,32.803803559099997
299,355,EXXONMOBIL OIL CORP. #10215,14753,10496 CLAIREMONT MESA BLVD,SAN DIEGO,92124.000000000000000,303 986-8011,,42,0,17.000000000000000,-117.103671003000000,32.829802066600003
300,377,FILL N GO /CALIFORNIA FINEST OIL,14754,10821 TIERRASANTA BLVD,SAN DIEGO,92124.000000000000000,858 279-0690,,24,0,17.000000000000000,-117.098415028000010,32.821348847700001
301,414,MOBIL-BODY BEAUTIFUL CAR WASH INC,6718,4282 CAM DEL RIO N,SAN DIEGO,92108.000000000000000,619-563-5566,,40,0,17.000000000000000,-117.102377495000000,32.780266786900000
302,529,THRIFTY #9564,2667,6404 MISSION GORGE RD,SAN DIEGO,92120.000000000000000,714-670-5179,,16,0,17.000000000000000,-117.098109544000000,32.790145448799997
303,541,TIERRASANTA TOWN CENTER GAS,15726,10585 TIERRASANTA BLVD,SAN DIEGO,92124.000000000000000,858 560-4101,,24,0,17.000000000000000,-117.101528121000000,32.822819498400001
304,562,VALERO INC. #3766/ATTN: DENNIS SMITH,10328,5970 SANTO RD,SAN DIEGO,92124.000000000000000,559-583-3298,,36,0,17.000000000000000,-117.097910871000000,32.840146576599999
305,566,VALERO-MISSION GORGE,13382,6011 MISSION GORGE RD,SAN DIEGO,92120.000000000000000,,,28,0,17.000000000000000,-117.097973399000000,32.783271689099998
306,26,SHELL - OTAY VALLEY SHELL,14503,4555 MAIN ST,CHULA VISTA,91911.000000000000000,619-482-1896,,28,0,20.000000000000000,-117.034599403000000,32.594749303999997
307,58,7 ELEVEN #32825,12515,5188 BONITA RD,BONITA,91902.000000000000000,,,24,0,20.000000000000000,-117.019957097000000,32.671902168800003
308,64,76 CONOCO PHILLIPS #256409,13368,3995 BONITA RD,BONITA,91902.000000000000000,,,32,0,20.000000000000000,-117.041519421999990,32.658112842400001
309,75,76 CONOCOPHILLIPS#256894,13370,1495 E H ST,CHULA VISTA,91910.000000000000000,,,30,0,20.000000000000000,-117.001328663000000,32.644413489000002
310,204,ARCO-BONITA GAS MINI MART,2731,4498 BONITA RD,BONITA,91902.000000000000000,619-479-2272,,24,0,20.000000000000000,-117.031567800000000,32.660896658399999
311,226,BONITA VISTA GAS & AUTO,2651,903 OTAY LAKES RD,CHULA VISTA,91913.000000000000000,510-842-9002,,24,0,20.000000000000000,-116.993713815000010,32.642268787500001
312,228,CANYON FUEL,14775,501 TELEGRAPH CANYON RD,CHULA VISTA,91910.000000000000000,619-421-3000,,26,0,20.000000000000000,-117.041835457000000,32.629077230000000
313,230,"CARMALOR, INC.",14403,350 E H ST,CHULA VISTA,91910.000000000000000,619-580-9867,"RATONEL, LORNA",42,0,20.000000000000000,-117.050047299000000,32.640635830100003
314,244,CHEVRON #203217,9855,770 PLAZA COURT,CHULA VISTA,91910.000000000000000,510-842-9002,,36,0,20.000000000000000,-117.029786077000000,32.636692820699999
315,296,COSTCO WHOLESALE #460/ATTN:LICENSING,10563,895 E H ST,CHULA VISTA,91910.000000000000000,,,32,0,20.000000000000000,-117.022065051000000,32.637266396400001
316,614,CHEVRON #209663,12571,695 E PALOMAR ST,CHULA VISTA,91911.000000000000000,,,36,0,20.000000000000000,-117.024511046000000,32.614698763000000
317,617,CHEVRON TEXACO #30-1124,15066,2115 OLYMPIC PKWY,CHULA VISTA,91915.000000000000000,,,36,0,20.000000000000000,-116.966414038000000,32.628923541500001
318,638,EXXONMOBIL OIL CORP. #12924,10606,2210 OTAY LAKES RD,CHULA VISTA,91915.000000000000000,619-216-1890,,38,0,20.000000000000000,-116.968603182000000,32.646470389400001
319,664,"USA- PALISADES GAS & WASH, INC. #865",14599,1382 E PALOMAR ST,CHULA VISTA,91913.000000000000000,619 397-4436,,24,0,20.000000000000000,-116.998392901000000,32.623081224400003
320,733,CHEVRON /EASTLAKE PETROEUM,15127,950 ELAKE PKWY,CHULA VISTA,91915.000000000000000,760 846-0708,,52,0,20.000000000000000,-116.966651438000000,32.650249131999999
321,757,"LAMB FUELS, INC.",7467,855 ENERGY WY,CHULA VISTA,91911.000000000000000,619-421-0805,,3,0,20.000000000000000,-117.010415493000000,32.596631988299997
322,12,ALLEN GAS TRUCK STOP,11836,3205 MAIN ST,CHULA VISTA,91911.000000000000000,619-585-3058,,18,0,21.000000000000000,-117.064249139000000,32.594649012300003
323,14,ARCO AMPM #607,2903,3190 MAIN ST,CHULA VISTA,91911.000000000000000,,,24,0,21.000000000000000,-117.064888171000010,32.594925239500000
324,17,BJ'S RENTALS,15310,2665 MAIN ST,CHULA VISTA,91911.000000000000000,619 423-7000,,2,0,21.000000000000000,-117.075941825000000,32.594642036000003
325,19,CIRCLE K - #2964,2440,60 BROADWAY,CHULA VISTA,91910.000000000000000,602-437-7576,,12,0,21.000000000000000,-117.095499125000000,32.646017147800002
326,20,COSTCO WHOLESALE #781,10617,1130 BROADWAY,CHULA VISTA,91911.000000000000000,,,24,0,21.000000000000000,-117.081069342000010,32.609030114399999
327,23,OPTIMA CAR WASH,11062,498 BROADWAY,CHULA VISTA,91910.000000000000000,619-691-0942,,24,0,21.000000000000000,-117.089639743000010,32.630959208999997
328,24,PETROL MINI MART,7303,4430 MAIN ST,CHULA VISTA,91911.000000000000000,619-498-0218,YOGESH PATEL,26,0,21.000000000000000,-117.038030996000000,32.594716127100000
329,55,COUNTY OF SAN DIEGO/SO.BAY REGIONAL CEN,10364,500 3RD AVE,CHULA VISTA,91910.000000000000000,,,2,0,21.000000000000000,-117.077758007000000,32.632662220500002
330,65,76 CONOCOPHILLIPS #255221,15905,898 BRDWY,CHULA VISTA,91911.000000000000000,,,40,0,21.000000000000000,-117.084605151000010,32.617387707100001
331,108,"7-ELEVEN #21604 /7-ELEVEN, INC",3801,899 BRDWY,CHULA VISTA,91911.000000000000000,474-7021,,12,0,21.000000000000000,-117.083831362000000,32.617639954099999
332,114,"7-ELEVEN #24070 /7-ELEVEN, INC",2518,1482 HILLTOP DR,CHULA VISTA,91911.000000000000000,474-7021,,8,0,21.000000000000000,-117.051883131000000,32.600483035000003
333,160,ARCO #9597,14917,1401 HILLTOP DR,CHULA VISTA,91911.000000000000000,619-422-0844,"ATHIR HIEDO, OWNER",24,0,21.000000000000000,-117.051469633000000,32.604290993299998
334,166,ARCO AM/PM,16101,765 E ST,CHULA VISTA,91910.000000000000000,,,52,0,21.000000000000000,-117.099068724000010,32.640214038899998
335,178,ARCO AMPM #5208,2684,407 E ST,CHULA VISTA,91910.000000000000000,,,24,0,21.000000000000000,-117.085812092000000,32.643836805799999
336,179,ARCO AMPM #5217,2722,798 3RD AVE,CHULA VISTA,91910.000000000000000,,,24,0,21.000000000000000,-117.073623569000010,32.624360638500001
337,180,ARCO AMPM #5218,2698,1725 BRDWY AVE,CHULA VISTA,91911.000000000000000,619-429-1631,,38,0,21.000000000000000,-117.074630386000000,32.594473085700002
338,192,ARCO AMPM #633,2902,800 PALOMAR ST,CHULA VISTA,91911.000000000000000,619-424-7040,,24,0,21.000000000000000,-117.088431739000000,32.604497434499997
339,212,ARCO-H ST ARCO,13042,720 H ST,CHULA VISTA,91910.000000000000000,619.425.5356,,24,0,21.000000000000000,-117.094282150000000,32.629351549900001
340,348,EXXON-MELROSE EXXON #1016,2178,1498 MELROSE AVE,CHULA VISTA,91911.000000000000000,916-443-0890,NEW WEST PETROLEUM,36,0,21.000000000000000,-117.039544676999990,32.604836291900000
341,365,EXXONMOBIL OIL CORP. #12625,2241,902 3RD AVE,CHULA VISTA,91911.000000000000000,585-9333,,24,0,21.000000000000000,-117.072060175999990,32.620224992300002
342,376,FILL N GO,4181,404 TELEGRAPH CANYON RD,CHULA VISTA,91911.000000000000000,619 827 8222,,28,0,21.000000000000000,-117.045887088000000,32.628328275100003
343,380,GAS DEPOT STATION,11582,199 BRDWY,CHULA VISTA,91910.000000000000000,619-427-8808,,24,0,21.000000000000000,-117.093388151000000,32.641840989099997
344,381,GASCO,11314,899 3RD AVE,CHULA VISTA,91911.000000000000000,619 422 9286,,44,0,21.000000000000000,-117.071578763000010,32.621016001299999
345,402,J ST LIQUOR,2784,701 BRDWY,CHULA VISTA,91910.000000000000000,619-426-5152,,8,0,21.000000000000000,-117.086349496000000,32.623938906900001
346,456,SHELL OIL PRODUCTS US #120588,3807,1295 3RD AVE,CHULA VISTA,91911.000000000000000,602-468-6944,,28,0,21.000000000000000,-117.066200886000000,32.607184610200001
347,470,SHELL OIL PRODUCTS US #121647,10637,902 BRDWY,CHULA VISTA,91911.000000000000000,602-468-6944,,34,0,21.000000000000000,-117.084353411000000,32.616866842100002
348,519,SUPREME GASOLINE,15499,196 BRDWY,CHULA VISTA,91910.000000000000000,619 427-8484,,24,0,21.000000000000000,-117.093978222000000,32.641550418000001
349,530,THRIFTY #9568,2671,401 TELEGRAPH CANYON RD,CHULA VISTA,91910.000000000000000,,,36,0,21.000000000000000,-117.046260029000000,32.628804101500002
350,545,UNITED RENTALS,3186,501 C ST,CHULA VISTA,91910.000000000000000,422-1105,,2,0,21.000000000000000,-117.092590831000000,32.649682724599998
351,575,WORLD OIL COMPANY #46,4029,685 H ST,CHULA VISTA,91910.000000000000000,562-928-0100,,36,0,21.000000000000000,-117.092950304000000,32.630355623100002
352,645,OPTIMA GASOLINE,7037,1450 3RD AVE,CHULA VISTA,91911.000000000000000,619-585-0011,,36,0,21.000000000000000,-117.065028967000000,32.601418169799999
353,655,SHELL-EQUILON ENT LLC/ATTN: PONCE,4595,100 BONITA RD,CHULA VISTA,91910.000000000000000,602-468-6944,,28,0,21.000000000000000,-117.062892311000000,32.645998578899999
354,666,WORLD PETROL CALI MART #1,12797,3733 MAIN ST,CHULA VISTA,91911.000000000000000,619-246-2213,,55,0,21.000000000000000,-117.053073854000000,32.594316630000002
355,677,CHEVRON - #92335,4505,95 BONITA RD,CHULA VISTA,91910.000000000000000,510-842-9002,,24,0,21.000000000000000,-117.064148234000000,32.648107528600001
356,681,CIRCLE K #5708,5139,98 BONITA RD,CHULA VISTA,91910.000000000000000,602-728-3593,,36,0,21.000000000000000,-117.064335644000000,32.647828754700001
357,691,BOBAR MARKET & GAS,7253,600 F ST,CHULA VISTA,91910.000000000000000,585-0988,,12,0,21.000000000000000,-117.092687592999990,32.637396226699998
358,717,"7-ELEVEN #29540 /7-ELEVEN, INC",7213,7 NAPLES,CHULA VISTA,91911.000000000000000,466-0711,,12,0,21.000000000000000,-117.057344076000010,32.617291295900003
359,2,EXPRESS FINANCIAL SERVICE,0,390 E SAN YSIDRO BLVD,SAN YSIDRO,92173.000000000000000,619-428-1800,,0,1,22.000000000000000,-117.037822940000000,32.550519129900003
360,80,76 MELROSE ORANGE UNOCAL 76,16072,1126 13TH ST,IMPERIAL BEAC,91932.000000000000000,619-424-8255,,24,0,22.000000000000000,-117.106036225000000,32.575899970400002
361,82,"76 PRODUCTS - LA CIMA OIL CO, INC.",13903,8289 OTAY MESA RD,SAN DIEGO,92154.000000000000000,760 798-1102,,44,0,22.000000000000000,-116.964270083000000,32.566501297599999
362,89,"7-ELEVEN #13588 /7-ELEVEN, INC",4474,1285 PICADOR BLVD,SAN DIEGO,92154.000000000000000,474-7021,,12,0,22.000000000000000,-117.053817458000000,32.574185057100003
363,125,"7-ELEVEN #26909 /7-ELEVEN, INC",2514,4210 BEYER BLVD,SAN YSIDRO,92173.000000000000000,428-5045,,12,0,22.000000000000000,-117.044187740000000,32.558614938100000
364,127,"7-ELEVEN #27771 /7-ELEVEN, INC",5912,1771 ORO VISTA RD,SAN DIEGO,92154.000000000000000,575-6241,,12,0,22.000000000000000,-117.078589569000000,32.564706601099999
365,129,"7-ELEVEN #32290/7-ELEVEN, INC",11035,8395 OTAY MESA RD,SAN DIEGO,92154.000000000000000,214-841-6704,,48,0,22.000000000000000,-116.963007770999990,32.567136636900003
366,184,ARCO AMPM #5323,7099,2510 OTAY CENTER DR,SAN DIEGO,92154.000000000000000,,,24,0,22.000000000000000,-116.942653286000000,32.553195191900002
367,187,ARCO AMPM #5367,7512,1625 HERITAGE RD,SAN DIEGO,92154.000000000000000,,,24,0,22.000000000000000,-116.996369200999990,32.567753158499997
368,207,ARCO-CHULA VISTA ENTERTAINMENT INC,13179,779 W SAN YSIDRO BLVD,SAN YSIDRO,92173.000000000000000,619-428-3593,,24,0,22.000000000000000,-117.059069894999990,32.557938109900000
369,217,ARCO-PAULETTE'S #1,5493,2290 CORONADO AVE,SAN DIEGO,92154.000000000000000,619 429-8848,,24,0,22.000000000000000,-117.084482686000000,32.576793444600000
370,219,ARCO-ST.CLAIR ENTERPRISES INC,4760,301 E SAN YSIDRO BLVD,SAN YSIDRO,92173.000000000000000,619-662-2446,,30,0,22.000000000000000,-117.039391708000000,32.551795231800000
371,237,CHEVRON - #91450,3527,2432 CORONADO AVE,SAN DIEGO,92154.000000000000000,510-842-9002,,24,0,22.000000000000000,-117.079922521000000,32.576857245200003
372,240,CHEVRON - #95195*,3827,220 SYCAMORE RD,SAN YSIDRO,92173.000000000000000,510-842-9002,,36,0,22.000000000000000,-117.044796639000000,32.550364923499998
373,243,CHEVRON #203188,10823,604 DENNERY RD,SAN DIEGO,92154.000000000000000,510-842-9002,,36,0,22.000000000000000,-117.032865735000000,32.583281429000003
374,263,CHEVRON-ALAN RITCHIE,11940,104 W SAN YSIDRO BLVD,SAN YSIDRO,92173.000000000000000,619-316-5531,,24,0,22.000000000000000,-117.044405633000000,32.551991432000001
375,283,CIRCLE K/76 #2702987,13836,1291 HOLLISTER,SAN DIEGO,92154.000000000000000,281-293-1000,,12,0,22.000000000000000,-117.083787757000000,32.573156747799999
376,335,EXXON #1042/NEW WEST PETROLEUM SD2,2113,108 W SAN YSIDRO BLVD,SAN DIEGO,92173.000000000000000,916-443-0890,,24,0,22.000000000000000,-117.044957603000000,32.552023955499997
377,367,EXXONMOBIL OIL CORP. #12743,3544,3724 DEL SOL BLVD,SAN DIEGO,92154.000000000000000,690-1155,,24,0,22.000000000000000,-117.054541343000000,32.573653999199998
378,370,EXXONMOBIL OIL CORP. #17855,4296,120 W SAN YSIDRO BLVD,SAN YSIDRO,92173.000000000000000,619-428-5977,,36,0,22.000000000000000,-117.045538171999990,32.552348978399998
379,421,OLYMPIC GASOLINE,11609,1300 IMPERIAL BEACH BLVD,IMPERIAL BEAC,91932.000000000000000,619-423-7770,,24,0,22.000000000000000,-117.105409040000000,32.576833318699997
380,445,SHELL,14742,2485 CORONADO AVE,SAN DIEGO,92154.000000000000000,,,24,0,22.000000000000000,-117.080100062000000,32.576060692900001
381,449,SHELL - OTAY MESA SHELL,14216,2310 ROLL DR,SAN DIEGO,92154.000000000000000,619-661-6098,SHAHIN EDALATDJU,36,0,22.000000000000000,-116.938177686000000,32.555840580000002
382,459,SHELL OIL PRODUCTS US #120987,7799,2435 OTAY CENTER DR,SAN DIEGO,92154.000000000000000,602-468-6944,,28,0,22.000000000000000,-116.942166482000000,32.554640866600003
383,461,SHELL OIL PRODUCTS US #121091,2173,314 E SAN YSIDRO BLVD,SAN DIEGO,92173.000000000000000,602-468-6944,,28,0,22.000000000000000,-117.039674143000000,32.551262610800002
384,522,"TEXACO-CALIFORNIA FINEST OIL, INC",12851,1102 HOLLISTER ST,SAN DIEGO,92154.000000000000000,,,22,0,22.000000000000000,-117.084469286000000,32.576234550499997
385,542,"TRUCK.NET, LLC.",0,8490 AVENIDO DE LA FUENTE,SAN DIEGO,92154.000000000000000,619 661-1888,,113,0,22.000000000000000,-116.961425303000000,32.557446141900002
386,548,UNOCAL CONOCOPHILLIPS#256412,2884,121 E SAN YSIDRO BLVD,SAN DIEGO,92173.000000000000000,,,24,0,22.000000000000000,-117.043429727000000,32.552451909699997
387,576,WORLD PETROL-CALI-MART #2,13902,1605 CACTUS RD,SAN DIEGO,92154.000000000000000,610-671-7095,,56,0,22.000000000000000,-116.987733293000010,32.567679460900003
388,601,ARCO AMPM #5408,7820,2255 PALM AVE,SAN DIEGO,92154.000000000000000,,,16,0,22.000000000000000,-117.085486069000000,32.583517669999999
389,604,ARCO-ESTATE FUELS,15818,4604 PALM AVE,SAN DIEGO,92154.000000000000000,519 690-5405,,36,0,22.000000000000000,-117.035136640000000,32.584205574400002
390,609,CHEVRON - #92189,6246,2325 ROLL DR,SAN YSIDRO,92173.000000000000000,510-842-9002,,24,0,22.000000000000000,-116.937092691000000,32.556328993299999
391,668,"7-ELEVEN #23982 /7-ELEVEN, INC",2517,1303 IMPERIAL BEACH BLVD,IMPERIAL BEAC,91932.000000000000000,474-7021,,12,0,22.000000000000000,-117.105603917000000,32.576395021899998
392,729,BEACHSIDE STATION,14270,681 SR-75,IMPERIAL BEAC,91932.000000000000000,619-424-3366,,24,0,22.000000000000000,-117.118648629000010,32.584596504600000
393,743,EXPRESS GAS - GENE'S,3551,120 CALLE PRIMERA,SAN DIEGO,92173.000000000000000,619-424-8880,,29,0,22.000000000000000,-117.044457564000000,32.550421534800002
394,745,EXXON #1022/NEWEST PETROLEUM S2,8166,907 PALM AV,IMPERIAL BEAC,91932.000000000000000,916-443-0890,,28,0,22.000000000000000,-117.113954330000000,32.583515307699997
395,54,COUNTY OF SAN DIEGO/EAST MESA DETENTION,10359,446 ALTA RD,SAN DIEGO,92173.000000000000000,,,2,0,30.000000000000000,-116.923505129000010,32.591077119500000
396,354,EXXONMOBIL OIL CORP #17966,11132,2903 JAMACHA RD,EL CAJON,92019.000000000000000,619 670 7814,,40,0,30.000000000000000,-116.938842378999990,32.740267229300002
397,596,"ARCO AM/PM-JLHAN, INC.",11090,13886 CAMPO RD,JAMUL,91935.000000000000000,619-669-6602,,26,0,30.000000000000000,-116.879323561000010,32.719875190600000
398,713,"7-ELEVEN #21802 /7-ELEVEN, INC",1227,12918 CAMPO RD,JAMUL,91935.000000000000000,579-8711,,18,0,30.000000000000000,-116.908896660000000,32.728379934400003
399,66,76 CONOCOPHILLIPS #257131,4891,11906 CAMPO RD,SPRING VALLEY,91978.000000000000000,670-7601,,34,0,31.000000000000000,-116.943305835000000,32.740263529000003
400,88,"7-ELEVEN #13575/7-ELEVEN, INC",2086,10049 CAMPO RD,SPRING VALLEY,91977.000000000000000,579-8711,,12,0,31.000000000000000,-116.978557433000010,32.747217752499999
401,96,"7-ELEVEN #13664 /7-ELEVEN, INC",2090,4610 AVOCADO BLVD,LA MESA,91941.000000000000000,579-8711,,12,0,31.000000000000000,-116.961546049000010,32.763128327300002
402,98,"7-ELEVEN #15070 /7-ELEVEN, INC",2144,10777 JAMACHA BLVD,SPRING VALLEY,91978.000000000000000,464-2711,,12,0,31.000000000000000,-116.961424763000000,32.729580118900003
403,106,"7-ELEVEN #20508 /7-ELEVEN, INC",2153,948 GRAND AVE,SPRING VALLEY,91977.000000000000000,464-2711,,12,0,31.000000000000000,-116.997744962000000,32.714675689600000
404,150,"ARCO - AF MANAGEMENT, INC.",14591,2615 SWEETWATER SPRING BLVD,SPRING VALLEY,91978.000000000000000,619 670-9861,,40,0,31.000000000000000,-116.969135337000000,32.726291519699998
405,159,ARCO #9595/SUNSHINE,11554,9108 CAMPO RD,SPRING VALLEY,91977.000000000000000,619-462-5385,,36,0,31.000000000000000,-117.000983292000000,32.751711407099997
406,169,ARCO AM/PM - YOUSSEFS,5270,9065 CAMPO RD,SPRING VALLEY,91977.000000000000000,462-7666,,24,0,31.000000000000000,-117.001906499000000,32.751270837100002
407,276,CHEVRON-SMR CHEVRON,12934,9749 CAMPO RD,SPRING VALLEY,91977.000000000000000,619-469-6881,,32,0,31.000000000000000,-116.985719696000000,32.747677893999999
408,285,CIRCLE K/76 #2707953,13841,481 SWEETWATER RD,SPRING VALLEY,91977.000000000000000,281-293-1000,,12,0,31.000000000000000,-117.010303089000000,32.706446915599997
409,288,CIRCLE MARKET,12239,3504 BANCROFT DR,SPRING VALLEY,91977.000000000000000,619-464-6957,,12,0,31.000000000000000,-117.003789440000010,32.744777735699998
410,305,COUNTY OF SAN DIEGO/DIVISION 1,13651,11970 SINGER LN,SPRING VALLEY,91977.000000000000000,,,4,0,31.000000000000000,-116.942073631000000,32.737200732100000
411,320,EXXON,11889,9111 CAMPO RD,SPRING VALLEY,91977.000000000000000,,,26,0,31.000000000000000,-117.001229632000000,32.751039604799999
412,404,KELLY & ASSOCIATES,1748,3757 BANCROFT DR,SPRING VALLEY,91977.000000000000000,462-7772,,1,0,31.000000000000000,-117.001552988000000,32.747385589899999
413,436,QWIK KORNER GAS #3,13389,9663 CAMPO RD,SPRING VALLEY,91977.000000000000000,,,24,0,31.000000000000000,-116.988207970999990,32.747703573300001
414,475,SHELL OIL PRODUCTS US #135250,6183,2411 JAMACHA,EL CAJON,92019.000000000000000,602-468-6944,ARS WEST LLC-KIRK BROTEN,30,0,31.000000000000000,-116.927208056000000,32.745768444200003
415,520,SWEETWATER GAS,15555,2835 SWEETWATER RD,SPRING VALLEY,91977.000000000000000,619 589-6089,,20,0,31.000000000000000,-117.014153746999990,32.736450986999998
416,543,U.S. GAS,12959,3520 SWEETWATER SPRINGS BLVD,SPRING VALLEY,91977.000000000000000,619 670-1497,,28,0,31.000000000000000,-116.973222217000000,32.742891100800001
417,550,USA CORPORATION #137,2718,8659 JAMACHA RD,SPRING VALLEY,91977.000000000000000,818-865-9200,,39,0,31.000000000000000,-117.012358726000000,32.714467710100003
418,560,VALERO #3744,2499,9932 CAMPO RD,SPRING VALLEY,91977.000000000000000,559-583-3298,,18,0,31.000000000000000,-116.982146670000010,32.748228919399999
419,667,"7-ELEVEN #15944 /7-ELEVEN, INC",2145,9365 JAMACHA BLVD,SPRING VALLEY,91977.000000000000000,464-2711,,12,0,31.000000000000000,-116.998077373000000,32.707775655600003
420,22,"GOLDEN STATE GASOLINE, INC.",2697,7081 BROADWAY,LEMON GROVE,91945.000000000000000,619-593-6652,,28,0,32.000000000000000,-117.044594964000000,32.742390293100001
421,153,ARCO #09756,2701,6901 FEDERAL BLVD,LEMON GROVE,91945.000000000000000,714-670-5179,,24,0,32.000000000000000,-117.049247497000000,32.740953271099997
422,199,ARCO BRDWY ARCO,15585,8001 BRDWY AVE,LEMON GROVE,91945.000000000000000,619 464-6493,,24,0,32.000000000000000,-117.026009731000000,32.742653149799999
423,253,CHEVRON #91739,1970,7209 BRDWY,LEMON GROVE,91945.000000000000000,510-842-9002,,44,0,32.000000000000000,-117.042478587000010,32.742083277500001
424,468,SHELL OIL PRODUCTS US #121520,7279,7180 BRDWY,LEMON GROVE,91945.000000000000000,602-468-6944,,42,0,32.000000000000000,-117.043265344000010,32.742956364900003
425,552,USA CORPORATION #246,3796,7505 BRDWY,LEMON GROVE,91945.000000000000000,818-865-9200,,26,0,32.000000000000000,-117.036085556000000,32.742348537300003
426,597,ARCO AM/PM-LEMON GROVE,13801,2717 LEMON GROVE AVE,LEMON GROVE,91945.000000000000000,619-589-2058,,24,0,32.000000000000000,-117.031044142000000,32.735133810000001
427,781,"VALERO -LEMON GROVE VALERO, JJ'S MARKET",15678,8170 BROADWAY,LEMON GROVE,91945.000000000000000,619 825-6839,,28,0,32.000000000000000,-117.020657924000010,32.744732143100002
428,3,FERRELL GAS/EMERALD OIL,0,5600 BALTIMORE DR,LA MESA,91942.000000000000000,858 271-4400,FERRELLGAS,0,1,33.000000000000000,-117.033226394000000,32.781061583400003
429,47,SHELL,15807,5261 BALTIMORE DR,LA MESA,91942.000000000000000,310 467-4600,,28,0,33.000000000000000,-117.026969858000000,32.775008850100001
430,157,ARCO #9543,14919,7594 UNIVERSITY AVE,LA MESA,91941.000000000000000,619-571-5050,"SADIR HIEDO, OWNER",24,0,33.000000000000000,-117.033782956000000,32.760623792600001
431,194,ARCO AMPM #695,2915,3775 MASSACHUSETTS AVE,LA MESA,91941.000000000000000,310-402-1299,,24,0,33.000000000000000,-117.042500729000000,32.745810776200003
432,195,ARCO AMPM #9596,14918,7974 UNIVERSITY AVE,LA MESA,91941.000000000000000,619-571-5050,"SADIR HIEDO, OWNER",36,0,33.000000000000000,-117.026431101000000,32.765376039800003
433,266,"CHEVRON-DEAN & HOWETH, INC.",1976,5322 JACKSON DR,LA MESA,91942.000000000000000,619-660-1113,,24,0,33.000000000000000,-117.015555516000010,32.775962775300002
434,287,CIRCLE K/76 #2708675,13843,8899 LA MESA BLVD,LA MESA,91941.000000000000000,281-293-1000,,12,0,33.000000000000000,-117.004931208000000,32.773083574799998
435,318,EMERALD OIL,13691,5600 BALTIMORE DR,LA MESA,91942.000000000000000,619 726-5151,"HOLLAK, DAVID",36,0,33.000000000000000,-117.033579531000000,32.781272787399999
436,322,EXXON #1023/NEW WEST PETROLEUM SD1,3061,6085 LAKE MURRAY BLVD,LA MESA,91942.000000000000000,916-443-0890,,28,0,33.000000000000000,-117.021554851999990,32.789151498499997
437,364,EXXONMOBIL OIL CORP. #12268,2844,5900 SEVERIN DR,LA MESA,91942.000000000000000,619-460-3145,,24,0,33.000000000000000,-116.998946929000000,32.786114509800001
438,446,SHELL,10829,4925 SPRING ST,LA MESA,91941.000000000000000,519-662-2727,,32,0,33.000000000000000,-117.022007441000000,32.768583794000001
439,450,SHELL- LAKE MURRAY,13411,5302 LAKE MURRAY BLVD,LA MESA,91942.000000000000000,619-462-6722,MILLENNIUM PACIFIC DEVELOPME,28,0,33.000000000000000,-117.045374554000010,32.775580109600000
440,464,SHELL OIL PRODUCTS US #121355,15239,5151 N 70TH ST,LA MESA,91941.000000000000000,619-463-3000,,27,0,33.000000000000000,-117.046419163000000,32.772730746699999
441,471,SHELL OIL PRODUCTS US #121655,3063,9090 DALLAS ST,LA MESA,91942.000000000000000,,KIRK BROTEN 760-533-9258,28,0,33.000000000000000,-117.002610700000010,32.792778599400002
442,481,SHELL OIL PRODUCTS US #135423,1909,3810 MASSACHUSETTS AVE,LA MESA,91941.000000000000000,602-468-6944,,24,0,33.000000000000000,-117.043153844000000,32.746647287899997
443,616,CHEVRON STATION,15495,8200 UNIVERSITY AVE,LA MESA,0.000000000000000,-619,,32,0,33.000000000000000,-117.021443669000010,32.767729105999997
444,662,THRIFTY #9578,2683,9600 MURRAY DR,LA MESA,91942.000000000000000,714-670-5179,,20,0,33.000000000000000,-116.990034866000000,32.779926461700001
445,706,76 PALM RIDGE MARKET & 76,13602,4360 PALM AV,SAN DIEGO,92154.000000000000000,619-690-4530,,26,0,33.000000000000000,-117.015332395000000,32.758311886199998
446,712,"7-ELEVEN #20884 /7-ELEVEN, INC",2154,4253 PALM AV,LA MESA,91941.000000000000000,464-2711,,6,0,33.000000000000000,-117.014328868000010,32.756258562600003
447,720,AMEX PETROLEUM,4680,8303 PARKWAY DR,LA MESA,91942.000000000000000,619-465-1155,,24,0,33.000000000000000,-117.018141337000000,32.778313450799999
448,30,THRIFTY #9758,2703,398 EL CAJON BLVD,EL CAJON,92020.000000000000000,,,24,0,34.000000000000000,-116.971419505000000,32.791467272600002
449,32,"7-ELEVEN #25302 /7-ELEVEN, INC",3512,711 JAMACHA RD,EL CAJON,92019.000000000000000,579-8711,,12,0,34.000000000000000,-116.927653125000010,32.787358600799998
450,63,76 @ MAIN ST.,1945,1090 W MAIN ST,EL CAJON,92020.000000000000000,619-227-2933,,24,1,34.000000000000000,-116.975141040000000,32.795257928200002
451,69,76 CONOCOPHILLIPS#254247 c/o KAYO OIL C,13372,2410 FLETCHER PKWY,EL CAJON,92020.000000000000000,619-460-0076,,24,0,34.000000000000000,-116.997913826000000,32.802779002800001
452,79,76 INC,16376,500 N 2ND ST,EL CAJON,92021.000000000000000,,,24,0,34.000000000000000,-116.936111067000000,32.800468129000002
453,109,7-ELEVEN #21798,12517,1498 JAMACHA RD,EL CAJON,92020.000000000000000,,,24,0,34.000000000000000,-116.928341028000010,32.769367813499997
454,152,ARCO - WASHINGTON ARCO,14734,1092 E WASHINGTON AVE,EL CAJON,92020.000000000000000,619-631-0238,,18,0,34.000000000000000,-116.944937340000000,32.787966110900001
455,168,ARCO AM/PM,13023,404 E CHASE AVE,EL CAJON,92020.000000000000000,619-442-8410,,24,0,34.000000000000000,-116.957413138000010,32.780742333500001
456,171,ARCO AM/PM #06146,13394,725 N 2ND ST,EL CAJON,92021.000000000000000,,,24,0,34.000000000000000,-116.935308007000000,32.804328366299998
457,174,ARCO- AM/PM WEST MAIN ARCO #88312,13554,1245 W MAIN ST,EL CAJON,92020.000000000000000,619-444-6012,,24,0,34.000000000000000,-116.978820078000000,32.794698605000001
458,182,ARCO AMPM #5283,2639,1518 N MAGNOLIA AVE,EL CAJON,92020.000000000000000,,,36,0,34.000000000000000,-116.962689299000000,32.818598363500001
459,193,ARCO AMPM #640,2905,593 N MOLLISON AVE,EL CAJON,92021.000000000000000,,,24,0,34.000000000000000,-116.950657531999990,32.802067478200001
460,239,CHEVRON - #92779,3905,696 N MOLLISON AVE,EL CAJON,92021.000000000000000,510-842-9002,,24,0,34.000000000000000,-116.951324586000000,32.804099264199998
461,271,CHEVRON-G&M OIL CO. #94,11945,1298 BRDWY,EL CAJON,92021.000000000000000,714 375 4700,,36,0,34.000000000000000,-116.936136137000010,32.808070951500000
462,321,EXXON #1017/NEW WEST PETROLEUM SD1,2733,695 EL CAJON BLVD,EL CAJON,92020.000000000000000,916-443-0890,,22,0,34.000000000000000,-116.974128617999990,32.787889015399998
463,341,EXXON -APRO LLC #20,12096,710 N SECOND ST,EL CAJON,92021.000000000000000,,,28,0,34.000000000000000,-116.936155262000000,32.804260774699998
464,378,GAS DEPOT,11456,490 N 2ND ST,EL CAJON,92021.000000000000000,619-447-5916,,18,0,34.000000000000000,-116.936116845000000,32.799956550700003
465,386,"GOLDEN STATE GASOLINE, INC.",2649,181 N 2ND ST,EL CAJON,92021.000000000000000,619-593-6652,,36,0,34.000000000000000,-116.935328702000010,32.796115815500002
466,434,QUICK TRIP FUEL MARKET,14770,596 N MOLLISON AVE,EL CAJON,92021.000000000000000,619-441-3340,,56,0,34.000000000000000,-116.951474602000000,32.802503967800000
467,437,RAM 99*,4624,407 EL CAJON BLVD,EL CAJON,92020.000000000000000,619447-6812,,16,0,34.000000000000000,-116.971187142000010,32.791068360399997
468,441,REVCO GAS,7047,303 JAMACHA RD,EL CAJON,92019.000000000000000,619-579-2473,"REVA ENTERPRISES, INC.",28,0,34.000000000000000,-116.933119975000000,32.792447854300001
469,463,SHELL OIL PRODUCTS US #121353,4175,515 MAGNOLIA AVE,EL CAJON,92020.000000000000000,602-468-6944,,28,0,34.000000000000000,-116.962011492000000,32.801196169800001
470,465,SHELL OIL PRODUCTS US #121435,3065,601 N 2ND ST,EL CAJON,92021.000000000000000,602-468-6944,,48,0,34.000000000000000,-116.935275315000000,32.802427621699998
471,506,SKS INC.,7116,610 N 2ND ST,EL CAJON,92021.000000000000000,858-530-1193,,12,0,34.000000000000000,-116.936126232000010,32.802414319999997
472,511,"SOCO GROUP, INC., THE",2083,145 VERNON WY,EL CAJON,92020.000000000000000,619-440-8811,,58,0,34.000000000000000,-116.963733710000000,32.812120023600002
473,512,SPEEDY MART,15295,1791 N 2ND ST,EL CAJON,92021.000000000000000,619 447-9119,,28,0,34.000000000000000,-116.934433240999990,32.820535791499999
474,518,SUPER STAR STATIONS INC,13413,1110 E MAIN ST,EL CAJON,92021.000000000000000,,,24,0,34.000000000000000,-116.944288653000000,32.795247034500001
475,527,THRIFTY #9532,2659,700 AVOCADO AVE,EL CAJON,92020.000000000000000,714 670 5051,,36,0,34.000000000000000,-116.958183922000000,32.787379965500001
476,534,THRIFTY #9573,2677,1525 N MAGNOLIA AVE,EL CAJON,92020.000000000000000,,,20,0,34.000000000000000,-116.961948091000000,32.818712937299999
477,536,THRIFTY #9577,2682,489 W MAIN ST,EL CAJON,92020.000000000000000,,,16,0,34.000000000000000,-116.967510436000000,32.794496881599997
478,555,VALERO,15277,785 JAMACHA RD,EL CAJON,92019.000000000000000,619 447-9119,,28,0,34.000000000000000,-116.927553058000000,32.785559589700000
479,584,"7-ELEVEN #17637 /7-ELEVEN, INC",2092,1522 GRAVES AVE STE E,EL CAJON,0.000000000000000,579-8711,,12,0,34.000000000000000,-116.959526456000010,32.819529759700004
480,659,THRIFTY #9562,5767,978 CUYAMACA ST,EL CAJON,92020.000000000000000,714-670-5179,,24,0,34.000000000000000,-116.980017391999990,32.808217817600003
481,674,ARCO-SMOGPROS,5094,1410 E MAIN ST,EL CAJON,92021.000000000000000,619-442-1621,,24,0,34.000000000000000,-116.931022885999990,32.799903756900001
482,680,CHEVRON-G & M OIL CO.#95,12558,1099 W MAIN ST,EL CAJON,92020.000000000000000,,,28,0,34.000000000000000,-116.975264581000000,32.794710361800000
483,682,EXXON #1018/NEW WEST PETROLEUM SD1,2530,1699 E MAIN ST,EL CAJON,92021.000000000000000,916-443-0890,,28,0,34.000000000000000,-116.918626871000000,32.811892020800002
484,716,"7-ELEVEN #25085 /7-ELEVEN, INC",3326,895 BROADWAY,EL CAJON,92021.000000000000000,579-8711,,12,0,34.000000000000000,-116.951358825000000,32.807383373100002
485,721,ARCO,3685,201 BROADWAY,EL CAJON,92021.000000000000000,619-447-4347,,24,0,34.000000000000000,-116.960008475000000,32.807319749300000
486,722,ARCO #9755,2699,1185 PALM AV,IMPERIAL BEAC,91932.000000000000000,,,24,0,34.000000000000000,-116.977055483000000,32.791211234499997
487,727,"ARCO, ON BROADWAY GAS",16133,900 E BROADWAY,EL CAJON,92020.000000000000000,619-440-4871,,1,0,34.000000000000000,-116.950616471000000,32.808022345099999
488,742,COUNTY OF SAN DIEGO/SANTEE OPERATIONS C,10337,1875 WELD BLVD,EL CAJON,92020.000000000000000,,,2,0,34.000000000000000,-116.987580924000000,32.826054208400002
489,744,EXXON #1019/NEWEST PETROLEUM SD2,5344,898 BROADWAY,EL CAJON,92021.000000000000000,916-443-0890,,28,0,34.000000000000000,-116.951376647999990,32.808039306200001
490,749,EXXONMOBIL OIL CORP #10434,1943,1761 GREENFIELD DR,EL CAJON,92021.000000000000000,619-444-4274,,24,0,34.000000000000000,-116.916258269000000,32.811322887400003
491,753,GOLDEN STATE AVIATION,6749,1640 JOHNSON AV,EL CAJON,92020.000000000000000,619-449-0611,,3,0,34.000000000000000,-116.971194939000000,32.817496365700002
492,776,"SUPER STAR #2, SUPER STATIONS INC",15282,1090 BROADWAY,EL CAJON,92021.000000000000000,619 440-1166,,36,0,34.000000000000000,-116.944897418000000,32.808044027599998
493,39,"HARRISON TRUCKING, INC.",1728,8801 OLIVE LN,SANTEE,92071.000000000000000,619-449-0840,,2,0,35.000000000000000,-116.987216121000000,32.835762925899999
494,94,"7-ELEVEN #13661 /7-ELEVEN, INC",2087,9251 CARLTON HILLS BLVD,SANTEE,92071.000000000000000,579-8711,,12,0,35.000000000000000,-116.997910678000000,32.845513816299999
495,101,"7-ELEVEN #19006 /7-ELEVEN, INC",2094,9111 MISSION GORGE RD,SANTEE,92071.000000000000000,579-8711,,12,0,35.000000000000000,-117.000376043000000,32.838326338000002
496,158,ARCO #9567,2670,9811 MISSION GORGE RD,SANTEE,92071.000000000000000,,,36,0,35.000000000000000,-116.983294540000000,32.838280877400003
497,233,CHEVRON,12579,9312 MISSION GORGE RD,SANTEE,92071.000000000000000,619 562-1242,,24,0,35.000000000000000,-116.995379593000000,32.839030329499998
498,252,CHEVRON #91408,2048,8888 N MAGNOLIA AVE,SANTEE,92071.000000000000000,510-842-9002,,42,0,35.000000000000000,-116.967551270000000,32.837848030700002
499,282,CIRCLE K/76 #2702955,13834,10219 MAST BLVD,SANTEE,92071.000000000000000,281-293-1000,,12,0,35.000000000000000,-116.975018994000000,32.854741917200002
500,361,EXXONMOBIL OIL CORP. #11462,2882,9750 MAGNOLIA AVE,SANTEE,92071.000000000000000,619-449-4224,,32,0,35.000000000000000,-116.971522402000010,32.854826978399998
501,422,ONE STOP AUTO TECH.,12442,9605 CARLTON HILLS BLVD,SANTEE,92071.000000000000000,619-448-6116,,8,0,35.000000000000000,-116.998440538000000,32.852304168499998
502,535,THRIFTY #9574,2678,9009 CARLTON HILLS BLVD,SANTEE,92071.000000000000000,714-670-5179,,36,0,35.000000000000000,-116.996184594000000,32.841240744700002
503,625,COSTCO GASOLINE #403,11126,101 TOWN CENTER PKWY,SANTEE,92071.000000000000000,,,32,0,35.000000000000000,-116.987212873999990,32.840817403800003
504,711,"7-ELEVEN #20321 /7-ELEVEN, INC",2095,9750 CUYAMACA,SANTEE,92071.000000000000000,579-8711,,12,0,35.000000000000000,-116.983267346999990,32.855255525600001
505,764,QWIK KORNER GAS STATION #2,13642,9035 MISSION GORGE RD,SANTEE,92071.000000000000000,619-729-3729,,40,0,35.000000000000000,-117.001040330000000,32.838319626500002
506,37,EL CAPITAN OIL COMPANY,13037,12210 INDUSTRY RD,LAKESIDE,92040.000000000000000,619-448-5891,,16,0,36.000000000000000,-116.927972454000000,32.860753385000002
507,50,"SHELL-VINTNERS DISTRS., INC",10045,13538 CAM CANADA,EL CAJON,92021.000000000000000,510-293-9150,,40,0,36.000000000000000,-116.901893298000000,32.826130137600003
508,95,"7-ELEVEN #13662 /7-ELEVEN, INC",2088,8625 LOS COCHES RD,LAKESIDE,92040.000000000000000,579-8711,,12,0,36.000000000000000,-116.905729350000000,32.833306689099999
509,97,"7-ELEVEN #13666 /7-ELEVEN, INC",2089,11610 RIVERSIDE DR,LAKESIDE,92040.000000000000000,579-8711,,8,0,36.000000000000000,-116.942620769000000,32.862668561500001
510,111,"7-ELEVEN #22481 /7-ELEVEN, INC",2098,10205 LAKE JENNINGS PARK RD,LAKESIDE,92040.000000000000000,579-8711,,12,0,36.000000000000000,-116.900753889000000,32.861129611599999
511,124,"7-ELEVEN #26651 /7-ELEVE, INC",5032,10195 RIVERFORD RD,LAKESIDE,92040.000000000000000,579-8711,,12,0,36.000000000000000,-116.946814202000000,32.861092779200000
512,145,ARCO,11933,12109 WOODSIDE AVE,LAKESIDE,92040.000000000000000,619-561-2193,,24,0,36.000000000000000,-116.930663103000000,32.855798569100003
513,151,"ARCO - ARMOUR FOODS, INC.",14108,7908 WINTERGARDENS,LAKESIDE,92021.000000000000000,619-447-9119,,20,0,36.000000000000000,-116.934765392000000,32.821181213899997
514,175,ARCO AMPM,6753,9606 WINTERGARDENS,LAKESIDE,92040.000000000000000,619 823 3835,,24,0,36.000000000000000,-116.931571504000000,32.852419127399997
515,249,"CHEVRON #59-G&M OIL CO., INC.",10895,1701 E MAIN ST,EL CAJON,92021.000000000000000,714-375-4700,,42,0,36.000000000000000,-116.917987470000000,32.812430603800003
516,278,CIRCLE K - #2702981,2443,12320 WILLOW RD,LAKESIDE,92040.000000000000000,602-728-3593,,12,0,36.000000000000000,-116.923520816000010,32.874587085599998
517,316,EAGLE GAS & LP,2062,8445 LOS COCHES RD,EL CAJON,92021.000000000000000,619-443-8888,,28,0,36.000000000000000,-116.903589834000000,32.828177710699997
518,392,HAWTHORNE RENT-IT SERVICE,2737,12329 MAPLEVIEW,LAKESIDE,92040.000000000000000,561-8700,,3,0,36.000000000000000,-116.925339057000000,32.861750386399997
519,513,SPIRIT AUTO CENTER,3014,12402 WOODSIDE AVE,LAKESIDE,92040.000000000000000,510-842-9002,,24,0,36.000000000000000,-116.925138778000000,32.857293819500001
520,554,VALERO,15094,12106 WOODSIDE AVE,LAKESIDE,92040.000000000000000,619 482-8275,,24,0,36.000000000000000,-116.930979501000000,32.856498373599997
521,563,VALERO -LOS COCHES VALERO,15588,8575 LOS COCHES RD,EL CAJON,92021.000000000000000,619 390-5444,,12,0,36.000000000000000,-116.904396023999990,32.831966653999999
522,628,EL CAPITAN OIL CO/ATTISHA ENTERPRISES,13512,11427 WOODSIDE AVE,SANTEE,0.000000000000000,619-448-5891,,25,0,36.000000000000000,-116.951170034000000,32.850082483999998
523,728,ARCO-LAKE JENNINGS ARCO/ASSET GAS LLC,11096,14039 HWY 8 BUSINESS,EL CAJON,92021.000000000000000,619-938-0097,,40,0,36.000000000000000,-116.882662341000000,32.844980811699998
524,739,COUNTY OF SAN DIEGO/LAKESIDE FUELING ST,10348,13115 WILLOWS RD,LAKESIDE,92040.000000000000000,,,4,0,36.000000000000000,-116.909444604000000,32.874646898300000
525,709,"7-ELEVEN #16439 /7-ELEVEN, INC",2091,14110 SR-80,EL CAJON,92021.000000000000000,579-8711,,12,0,37.000000000000000,-116.880694874000000,32.843885381299998
526,52,TAVERN RD VALERO,16377,1140 TAVERN RD,ALPINE,91901.000000000000000,,,31,0,38.000000000000000,-116.780769052000000,32.841226751699999
527,235,CHEVRON,1803,1145 TAVERN RD,ALPINE,91901.000000000000000,445-5260,,44,0,38.000000000000000,-116.780311578000000,32.841761228599999
528,286,CIRCLE K/76 #2708581,13842,1666 ALPINE BLVD,ALPINE,91901.000000000000000,281-293-1000,,12,0,38.000000000000000,-116.778752768000000,32.838087051099997
529,302,COUNTY OF SAN DIEGO/ALPINE RD STATION,10340,2914 TAVERN RD,ALPINE,91901.000000000000000,,,4,0,38.000000000000000,-116.780901662000010,32.809504275800002
530,313,DAN SMITH'S ALPINE BLVD GAS & DIESEL,15804,2232 ALPINE BLVD,ALPINE,91901.000000000000000,619 659-3267,,28,0,38.000000000000000,-116.765465910000000,32.835781947000001
531,501,SHELL-ALPINE SHELL,11620,2235 ALPINE BLVD,ALPINE,91901.000000000000000,619-778-8686,,26,0,38.000000000000000,-116.765493393000000,32.835193336499998
532,46,"RAMONA OIL CO, INC",1709,1000 OLIVE ST,RAMONA,92065.000000000000000,760-789-0410,,8,0,39.000000000000000,-116.873495704000010,33.047140410499999
533,51,STAGE STOP LIQUOR,3522,578 MAIN ST,RAMONA,92065.000000000000000,760-789-0993,,14,0,39.000000000000000,-116.861912713000000,33.045348833799999
534,104,"7-ELEVEN #20211 /7-ELEVEN, INC",2509,1076 MAIN ST,RAMONA,92065.000000000000000,268-1070,,12,0,39.000000000000000,-116.869803897000000,33.041007944599997
535,147,ARCO,14956,1015 MAIN ST,RAMONA,92065.000000000000000,760-789-3830,,24,0,39.000000000000000,-116.869066698000000,33.042205471099997
536,224,BJ'S RENTALS,15309,2055 MAIN ST,RAMONA,92065.000000000000000,760 789-0931,,2,0,39.000000000000000,-116.886000702999990,33.031752868500000
537,274,CHEVRON-RAMONA,11942,802 MAIN ST,RAMONA,92065.000000000000000,760-789-6583,DONALD GINOS - PRESIDENT,32,0,39.000000000000000,-116.865387641000000,33.043406686799997
538,315,DANIEL'S LIQUOR,5339,1350 MAIN ST,RAMONA,92065.000000000000000,789-1155,,24,0,39.000000000000000,-116.874481187000000,33.038410853599999
539,514,"STARS PETROLEUM, INC. (MOBIL)",12405,1910 MAIN ST,RAMONA,92065.000000000000000,760-788-7800,JIM KURTENBACK,56,0,39.000000000000000,-116.882539310000000,33.032729453100004
540,564,VALERO -RAMONA VALERO,14598,1210 MAIN ST,RAMONA,92065.000000000000000,760 789-2411,"YOUSIF, YOUSIF",32,0,39.000000000000000,-116.871809881000000,33.039960679600000
541,693,CIRCLE K - #2970,2452,704 MAIN ST,RAMONA,92065.000000000000000,602-728-3593,,12,0,39.000000000000000,-116.863958238000000,33.044400692499998
542,699,PACIFIC EXECUTIVE AVIATION,6743,2450 MONTECITO RD,RAMONA,92065.000000000000000,760-789-6384,,1,0,39.000000000000000,-116.906450723000010,33.040319098399998
543,740,COUNTY OF SAN DIEGO/RAMONA RD STATION,10363,116 5TH ST,RAMONA,92065.000000000000000,,,8,0,39.000000000000000,-116.861049748000000,33.048058230999999
544,755,HI WY MARKET /RAMCHO PETROLEUM,15151,741 SR-78,RAMONA,92065.000000000000000,760 788-9885,,49,0,39.000000000000000,-116.843983278000000,33.050999748300001
545,0,CHULA VISTA ELEM.SCHL/ATN: BARRY,10231,84 E ""J"" STREET,CHULA VISTA,91910.000000000000000,619 425-9600,,0,2,40.000000000000000,-117.290408785000000,33.038470545499997
546,11,"7-ELEVEN #13627 /7-ELEVEN, INC",2434,102 LEUCADIA BLVD,ENCINITAS,92024.000000000000000,744-3604,,12,0,40.000000000000000,-117.301598113000000,33.064597639900001
547,28,SHELL OIL PRODUCTS US #135270,5845,160 ENCINITAS BLVD,ENCINITAS,92024.000000000000000,602-468-6944,,30,0,40.000000000000000,-117.289928343000000,33.048802045599999
548,41,MOBIL-RANCHO SANTA FE,2534,6089 LA FLECHA,RANCHO SANTA,92067.000000000000000,619-756-2929,,12,0,40.000000000000000,-117.202303009000000,33.019254753500000
549,119,"7-ELEVEN #25766 /7-ELEVEN, INC",4367,2211 SAN ELIJO AVE,CARDIFF,92007.000000000000000,760-436-0895,,12,0,40.000000000000000,-117.281223440000010,33.019324564800002
550,141,APRO LLC #22/REGENT GAS,12098,710 S COAST HWY 101,ENCINITAS,92024.000000000000000,,,16,0,40.000000000000000,-117.293763358000010,33.043113779599999
551,161,ARCO #9598,2689,633 BIRMINGHAM RD,CARDIFF,92007.000000000000000,714-670-5179,,28,0,40.000000000000000,-117.276018837000000,33.025670550999997
552,232,CHEVRON,14592,805 BIRMINGHAM DR,CARDIFF,92007.000000000000000,510-842-9002,,30,0,40.000000000000000,-117.273438987000010,33.026174274600002
553,306,COUNTY OF SAN DIEGO/ENCINITAS FLEET GAR,10403,179 N EL CAM REAL,ENCINITAS,92024.000000000000000,,,2,0,40.000000000000000,-117.256782544999990,33.049649242199997
554,346,EXXON-ENCINITAS-NEW WEST PETROLEUM LLC,4398,325 ENCINITAS BLVD,ENCINITAS,92024.000000000000000,916-443-0890,,28,0,40.000000000000000,-117.285005299000010,33.047895204100001
555,420,O'BRIEN STATION,2002,310 ENCINITAS BLVD,ENCINITAS,92024.000000000000000,760-753-1000,,40,0,40.000000000000000,-117.284976673000000,33.048650930900003
556,476,SHELL OIL PRODUCTS US #135268,2848,510 SANTA FE DR,ENCINITAS,92024.000000000000000,471-6074,,36,0,40.000000000000000,-117.280197943000000,33.036618943000001
557,477,SHELL OIL PRODUCTS US #135269,12381,1355 ENCINITAS BLVD,ENCINITAS,92024.000000000000000,760-753-7500,,32,0,40.000000000000000,-117.260053330000010,33.045590523400001
558,482,SHELL OIL PRODUCTS US #135437,2121,865 ORPHEUS,ENCINITAS,92024.000000000000000,753-0077,,24,0,40.000000000000000,-117.293253486000000,33.064610853600001
559,561,VALERO -CARDIFF,14428,820 BIRMINGHAM DR,CARDIFF BY TH,92007.000000000000000,760 436-1820,YOUNIS BALLO,28,0,40.000000000000000,-117.273229890000000,33.026710235800003
560,594,ARCO,14121,1580 LEUCADIA BLVD,ENCINITAS,92024.000000000000000,,,40,0,40.000000000000000,-117.264490217000000,33.068487866100000
561,606,BJ'S RENTALS,15308,203 S RANCHO SANTA FE,ENCINITAS,92024.000000000000000,760 753-1148,,2,0,40.000000000000000,-117.236138461000000,33.035986259799998
562,611,CHEVRON - #95664,3539,540 LA COSTA AVE,LEUCADIA,92024.000000000000000,510-842-9002,,30,0,40.000000000000000,-117.299599708000000,33.084458249299999
563,635,EXXONMOBIL OIL CORP. #10015,1932,705 LOMAS SANTA FE DR,SOLANA BEACH,92075.000000000000000,858-755-3579,SHAHIN EDALATDJA/VICE PRESID,36,0,40.000000000000000,-117.258672197000000,32.995670404000002
564,650,SHELL CARWASH @ ENCINITAS RANCH,10370,1060 N EL CAM REAL,ENCINITAS,92024.000000000000000,760-943-9797,,48,0,40.000000000000000,-117.264541673000000,33.067291153299998
565,714,"7-ELEVEN #24335 /7-ELEVE, INC",3336,1988 VILLAGE PARK WY,ENCINITAS,92024.000000000000000,438-8444,,12,0,40.000000000000000,-117.245976662000000,33.053384522899997
566,726,ARCO AMPM #704,2373,660 VIA DE LA VALLE,SOLANA BEACH,92075.000000000000000,,,36,0,40.000000000000000,-117.256628549000000,32.979524105899998
567,735,CHEVRON -ENCINITAS,15515,350 ENCINITAS BLVD,ENCINITAS,92024.000000000000000,760 ________,,48,0,40.000000000000000,-117.285070791000000,33.048366252199997
568,747,EXXONMOBIL OIL CORP  #11455,4727,2750 VIA DE LA VALLE,DEL MAR,92014.000000000000000,792-2264,,36,0,40.000000000000000,-117.248661324000000,32.980988142400001
569,9,SDG&E/GAS OPS/C. CRISS,13788,5016 CARLSBAD AVENUE,CARLSBAD,92008.000000000000000,562-806-5909,MALLINA OR RON LEDBETTER,0,2,41.000000000000000,-117.335266371000000,33.132473056899997
570,25,REFLECTSHINE AUTO WASH,7199,3528 COLLEGE BLVD,OCEANSIDE,92056.000000000000000,760-945-9111,,24,0,41.000000000000000,-117.295396180000000,33.180229401299997
571,38,EXXONMOBIL OIL CORP. #10826,2349,899 PALOMAR AIRPORT RD,CARLSBAD,92009.000000000000000,760-438-2141,,48,0,41.000000000000000,-117.319587803000000,33.121713847199999
572,62,76 #2705723,5271,880 CARLSBAD VILLAGE DR,CARLSBAD,92008.000000000000000,,,24,0,41.000000000000000,-117.345618384999990,33.161698919099997
573,73,76 CONOCOPHILLIPS#255927,4427,895 TAMARACK,CARLSBAD,92008.000000000000000,729-9251,,24,0,41.000000000000000,-117.337155413000000,33.151473742800000
574,186,ARCO AMPM #5366,683,1991 PALOMAR AIRPORT RD,CARLSBAD,92009.000000000000000,,,36,0,41.000000000000000,-117.282087293000000,33.119082382199998
575,209,ARCO-CROSSRD PETRO,14326,810 TAMARACK AVE,CARLSBAD,92008.000000000000000,760 730-1549,"HADDAD, ED",40,0,41.000000000000000,-117.338025548999990,33.152080730300000
576,218,ARCO-PDM AM/PM - ARCO,14066,3804 PLAZA DR,OCEANSIDE,92056.000000000000000,760-724-6165,"PAUL LECONTE(PRES), DONNA LE",24,0,41.000000000000000,-117.293132369000010,33.182710428999997
577,229,"CARLSBAD GAS & PROPANE, INC.",11832,1089 CARLSBAD VILLAGE DR,CARLSBAD,92008.000000000000000,760-729-0616,,28,0,41.000000000000000,-117.342762791000000,33.162655181300003
578,246,"CHEVRON #46/G&M OIL CO., INC.",1758,850 PALOMAR AIRPORT RD,CARLSBAD,92008.000000000000000,714-375-4700,,32,0,41.000000000000000,-117.320285298000000,33.121724643599997
579,395,HAWTHORNE RENT-IT SERVICE,2740,2065 CAM VIDA ROBLE,CARLSBAD,92009.000000000000000,431-7000,,1,0,41.000000000000000,-117.276236131000000,33.117847791199999
580,467,SHELL OIL PRODUCTS US #121481,15815,665 PALOMAR,CARLSBAD,92009.000000000000000,760 438-3656,,30,0,41.000000000000000,-117.324486674000000,33.121796849699997
581,473,SHELL OIL PRODUCTS US #135133,2558,1145 CARLSBAD VILLAGE DR,CARLSBAD,92008.000000000000000,760 729-1372,,24,0,41.000000000000000,-117.341275954000000,33.163577348700002
582,474,SHELL OIL PRODUCTS US #135134,3829,2590 EL CAM REAL,CARLSBAD,92008.000000000000000,434-4189,,24,0,41.000000000000000,-117.326221264000000,33.178126924600001
583,589,"7-ELEVEN #27109 /7-ELEVEN, INC",5928,901 PALOMAR AIRPORT RD,CARLSBAD,92009.000000000000000,431-9724,,12,0,41.000000000000000,-117.318762419000000,33.121661519200003
584,608,CHEVRON - #201962,1860,2295 S MELROSE AVE,VISTA,92083.000000000000000,510-842-9002,,36,0,41.000000000000000,-117.241715889999990,33.145859819000002
585,610,CHEVRON - #93320,3041,970 TAMARACK RD,CARLSBAD,92008.000000000000000,510-842-9002,,24,0,41.000000000000000,-117.335055987000000,33.153182473999998
586,615,CHEVRON -QUARRY CREEK,14729,3490 MARRON RD,OCEANSIDE,92056.000000000000000,760-724-4450,,52,0,41.000000000000000,-117.294875772000000,33.178838242700003
587,626,COSTCO WHOLESALE #462/ATTN: LICENSING,10598,951 PALOMAR AIRPORT RD,CARLSBAD,92009.000000000000000,,,32,0,41.000000000000000,-117.315660597999990,33.120817644100001
588,631,EXXON #1015/NEW WEST PETROLEUM SD2,2239,945 TAMARACK AVE,CARLSBAD,92008.000000000000000,916-443-0890,,28,0,41.000000000000000,-117.335288694000000,33.152447958099998
589,633,EXXON #1024/NEW WEST PETROLEUM SD1,2959,3401 COLLEGE BLVD,OCEANSIDE,92056.000000000000000,916-443-0890,,28,0,41.000000000000000,-117.296757042000000,33.181599395600003
590,678,CHEVRON #91312*,1949,2500 EL CAM REAL,CARLSBAD,92008.000000000000000,510-842-9002,,40,0,41.000000000000000,-117.326744734000000,33.181049451200003
591,679,CHEVRON #92321 -CARLSBAD CHEVRON,14419,1044 CARLSBAD VILLAGE DR,CARLSBAD,92008.000000000000000,760 729-5851,LINDA BINNI - STORE STAFF,36,0,41.000000000000000,-117.342771896000000,33.163188218800002
592,707,76-CIRCLE K/CARLSBAD FUELS,14129,7602 EL CAMINO REAL,CARLSBAD,92009.000000000000000,760 632-1129,CARLSBAD FUELS,52,0,41.000000000000000,-117.267631311000000,33.106968799199997
593,718,7-ELEVEN #32942/ATTN: GASOLINE ACCOUNTI,12516,5802 VAN ALLEN WY,CARLSBAD,92008.000000000000000,760-931-1154,,24,0,41.000000000000000,-117.287520185000010,33.136296868800002
594,736,CHEVRON POINSETTIA,13466,7170 AVENIDA ENCINAS,CARLSBAD,92009.000000000000000,760 804-5759,,40,0,41.000000000000000,-117.312036729000000,33.100352102700001
595,759,MAGELLAN AVIATION,15218,2006 PALOMAR AIRPORT RD,CARLSBAD,92008.000000000000000,760-438-7603,,1,0,41.000000000000000,-117.280851308000000,33.120825644900002
596,767,"SHELL - L.M. RETAIL, LP",14263,5115 AVENIDA ENCINAS,CARLSBAD,92008.000000000000000,760-630-0431,,24,0,41.000000000000000,-117.329522138000000,33.131677363900003
597,784,WESTMART,14381,4990 AVENIDA ENCINAS,CARLSBAD,92008.000000000000000,760-431-7100,BOLAND DAVARI,56,0,41.000000000000000,-117.330167515000000,33.132905284300001
598,42,MOHSEN OIL,2264,3213 MISSION AVE,OCEANSIDE,92054.000000000000000,760-945-7222,,44,0,42.000000000000000,-117.347611345999990,33.213490585899997
599,43,O'SIDE GAS,16070,"656 BENET RD, STE A",OCEANSIDE,92054.000000000000000,760-967-1512,,44,0,42.000000000000000,-117.357004841000010,33.214097664800001
600,45,"PLAVAN PETROLEUM, INC.",7230,575 AIRPORT RD,OCEANSIDE,92054.000000000000000,800-499-4645,,12,0,42.000000000000000,-117.354060436000000,33.216046483100001
601,70,76 CONOCOPHILLIPS#254875,2269,2003 MISSION AVE,OCEANSIDE,92054.000000000000000,721-3797,DENNIS 760-471-0150,24,0,42.000000000000000,-117.361553540000000,33.199565867600001
602,76,76 CONOCOPHILLIPS#257033,4060,3361 MISSION AVE,OCEANSIDE,92054.000000000000000,433-4647,,44,0,42.000000000000000,-117.341106014000000,33.217942491400002
603,77,76 CONOCOPHILLIPS#257288,13371,4181 OCEANSIDE BLVD,OCEANSIDE,92056.000000000000000,,,36,0,42.000000000000000,-117.285598017000000,33.206624249900003
604,83,76 PRODUCTS-OCEANSIDE BLVD UNION 76,13722,1660 OCEANSIDE BLVD,OCEANSIDE,92054.000000000000000,760-722-1304,,28,0,42.000000000000000,-117.364273860000000,33.189303599399999
605,85,"76, OCEANA #255940",15676,502 S EL CAM REAL,OCEANSIDE,92056.000000000000000,B 760 757-74,,24,0,42.000000000000000,-117.331620110000000,33.218084661200002
606,121,"7-ELEVEN #25818 /7-ELEVEN, INC.",1226,2255 MISSION AVE,OCEANSIDE,92054.000000000000000,760-721-2054,,12,0,42.000000000000000,-117.359264884000000,33.208205304099998
607,123,"7-ELEVEN #26190 /7-ELEVEN, INC",4592,1749 S COAST HIGHWY,OCEANSIDE,92054.000000000000000,438-8444,,12,0,42.000000000000000,-117.362663462000000,33.175357691700000
608,133,A & L GAS,2058,1801 S COAST HIGHWY,OCEANSIDE,92054.000000000000000,760-433-7151,,24,0,42.000000000000000,-117.362183986999990,33.174789973999999
609,156,ARCO #82378,13723,1990 OCEANSIDE BLVD,OCEANSIDE,92054.000000000000000,760-754-3334,,24,0,42.000000000000000,-117.353851711000000,33.195451439599999
610,165,ARCO AM/PM,16157,607 N DOUGLAS,OCEANSIDE,92054.000000000000000,,,36,0,42.000000000000000,-117.323237732000000,33.243989084100001
611,200,ARCO -MISSION GAS & MINI MART,15589,1920 MISSION AVE,OCEANSIDE,92054.000000000000000,760 754-0220,,52,0,42.000000000000000,-117.365043095000000,33.204421024200002
612,236,CHEVRON - #91191*,3035,1601 N COAST HIGHWY,OCEANSIDE,92054.000000000000000,510-842-9002,,24,0,42.000000000000000,-117.387409589000000,33.209236007999998
613,247,CHEVRON #53 -G&M OIL CO.,10448,601 N COAST HIGHWY,OCEANSIDE,92054.000000000000000,714-375-4700,,28,0,42.000000000000000,-117.382902083000000,33.199470254900000
614,323,EXXON #1025/NEW WEST PETROLEUM SD1,5903,3865 MISSION AVE,OCEANSIDE,92054.000000000000000,916-443-0890,,34,0,42.000000000000000,-117.328080879000000,33.226627535799999
615,363,EXXONMOBIL OIL CORP. #12099,11398,1407 MISSION AVE,OCEANSIDE,92054.000000000000000,760-439-3555,,32,0,42.000000000000000,-117.369880314000000,33.200975149100003
616,383,GLACIER WATER,16104,907 S COAST HIGHWY,OCEANSIDE,92054.000000000000000,,,1,0,42.000000000000000,-117.372632098000000,33.187243456799997
617,385,"GOLDEN STATE GASOLINE, INC.",4952,1943 S COAST HWY,OCEANSIDE,92054.000000000000000,619-593-6652,,24,0,42.000000000000000,-117.360005566000000,33.172201158500002
618,416,MOHSEN OIL INC,12638,628 S COAST HIGHWY,OCEANSIDE,92054.000000000000000,760 945-7222,,42,0,42.000000000000000,-117.373292651000000,33.188921954999998
619,502,SHELL-OLD GROVE SHELL,13753,"185 OLD GROVE RD, STE A",OCEANSIDE,92057.000000000000000,760-967-7344,STEVE THOMAS OR JOE/STORE MG,40,0,42.000000000000000,-117.308066276000010,33.231980050499999
620,537,THRIFTY #9749,2691,802 N COAST HIGHWY,OCEANSIDE,92054.000000000000000,714-670-5179,,24,0,42.000000000000000,-117.383668066000000,33.201315393000002
621,568,VALERO-TJ AUTO BISTRO/PACIFIC OIL,14590,1202 S COAST HWY,OCEANSIDE,92054.000000000000000,,,28,0,42.000000000000000,-117.368815660000000,33.183519005599997
622,583,"76-MR GOODWASH, THE MAGIC GARDEN, INC.",15041,2315 VISTA WY,OCEANSIDE,92054.000000000000000,760 721-4747,,24,0,42.000000000000000,-117.337700664000000,33.181738272399997
623,587,"7-ELEVEN #20342 /7-ELEVEN, INC",2438,487 VANDEGRIFT,OCEANSIDE,92057.000000000000000,438-8444,,12,0,42.000000000000000,-117.299923054000000,33.254645794699996
624,591,"7-ELEVEN #33053, INC",12500,4625 FRAZEE RD,OCEANSIDE,92057.000000000000000,,,36,0,42.000000000000000,-117.297616905000000,33.237557762100003
625,613,CHEVRON #203189,9956,785 COLLEGE BLVD,OCEANSIDE,92057.000000000000000,510-842-9002,,36,0,42.000000000000000,-117.293100421000010,33.242387444099997
626,619,CHEVRON-ROCCO BRUNO,11944,224 N EMERALD DR,VISTA,92083.000000000000000,760-724-3670,,36,0,42.000000000000000,-117.279978029000010,33.190646711799999
627,620,CHEVRON-ROWLEY PETROLEUM CORPORATION,10827,2191 VISTA WY,OCEANSIDE,92054.000000000000000,760-721-6789,,36,0,42.000000000000000,-117.340055272000000,33.183152643500001
628,623,CIRCLE K/76 #2705246,13838,3350 COLLEGE BLVD,OCEANSIDE,92056.000000000000000,281-293-1000,,12,0,42.000000000000000,-117.296055059000000,33.185772033299997
629,629,ENERGY PRODUCT & SERVICE,15387,1742 S COAST HWY,OCEANSIDE,92054.000000000000000,760-433-6711,,22,0,42.000000000000000,-117.362225068000000,33.175709669000000
630,637,EXXONMOBIL OIL CORP. #11795,3192,477 HARBOR DR,OCEANSIDE,92054.000000000000000,760-722-0555,,24,0,42.000000000000000,-117.388183377999990,33.208647270699998
631,639,EXXONMOBIL OIL CORP. #18090,11581,1990 COLLEGE BLVD,OCEANSIDE,92056.000000000000000,760-630-9510,,52,0,42.000000000000000,-117.284339571999990,33.207896663500001
632,688,SHELL OIL PRODUCTS US #121714,7515,660 DOUGLAS DR,OCEANSIDE,92057.000000000000000,602-468-6944,,28,0,42.000000000000000,-117.322468857999990,33.244772723300002
633,760,OCEANSIDE HARBOR FUEL DOCK AND MINI MAR,15539,1380 N PACIFIC ST,OCEANSIDE,92054.000000000000000,760 722-5853,,5,0,42.000000000000000,-117.393065136999990,33.205068239799999
634,762,O'SIDE GAS #2,16071,3945 MISSION AV,OCEANSIDE,92054.000000000000000,760-967-1512,,48,0,42.000000000000000,-117.323371233000000,33.228412662399997
635,779,UNOCAL #256832/KAYO OIL CO,2531,236 EL CAMINO REAL,ENCINITAS,92024.000000000000000,942-6451,,32,0,42.000000000000000,-117.331175840000000,33.222417873900000
636,29,SKS INC.,2706,1726 MISSION,ESCONDIDO,92029.000000000000000,858-530-1193,,24,0,50.000000000000000,-117.117932194999990,33.128432244199999
637,53,TERRY'S HAY & GRAIN,4756,27350 VALLEY CENTER RD,VALLEY CENTER,92082.000000000000000,760-749-9328,,1,0,50.000000000000000,-117.034097548999990,33.206762789599999
638,90,"7-ELEVEN #13619/7-ELEVEN, INC",11197,1702 ESCONDIDO BLVD,ESCONDIDO,92025.000000000000000,,,36,0,50.000000000000000,-117.072653096000000,33.104624696800002
639,113,"7-ELEVEN #22894 /7-ELEVEN, INC",2511,1030 N BRDWY,ESCONDIDO,92026.000000000000000,268-1070,,12,0,50.000000000000000,-117.086668979000000,33.134235830100003
640,140,APRO LLC #19/REGENT GAS,12095,555 W GRAND AVE,ESCONDIDO,92025.000000000000000,,,12,0,50.000000000000000,-117.087847864000000,33.118118462900000
641,163,ARCO /DANIEL & MATTHEW AMPM,14803,2306 S ESCONDIDO BLVD,ESCONDIDO,92025.000000000000000,760-743-1915,,24,0,50.000000000000000,-117.071401558999990,33.093898196100000
642,172,ARCO AM/PM 5549/MAXELL ENTERPRISES,6923,1550 E GRAND AVE,ESCONDIDO,92027.000000000000000,760-741-5960,DIXIE LINEBEGER,24,0,50.000000000000000,-117.059267654000000,33.130331540000000
643,238,CHEVRON - #91496,2652,215 E VIA RANCHO PKWY,ESCONDIDO,92025.000000000000000,510-842-9002,,24,0,50.000000000000000,-117.066461187000000,33.068089789799998
644,261,CHEVRON- S & R CHEVRON,15374,1575 E VALLEY PKWY,ESCONDIDO,92027.000000000000000,760 745-1415,,40,0,50.000000000000000,-117.059610251000000,33.133474572899999
645,280,CIRCLE K - #8545,5985,1161 E VALLEY PKWY,ESCONDIDO,92025.000000000000000,602-728-3593,,12,0,50.000000000000000,-117.067156469000000,33.129985686200001
646,284,CIRCLE K/76 #2705213,13844,1061 EL NORTE PKWY,ESCONDIDO,92026.000000000000000,281-293-1000,,24,0,50.000000000000000,-117.107528415000000,33.146743025100001
647,292,CLAIREMONT EQUIPMENT RENTALS,642,1330 W MISSION RD,ESCONDIDO,92029.000000000000000,278-8351,,2,0,50.000000000000000,-117.108666318999990,33.125645196100002
648,342,EXXON/APRO LLC #18,12094,303 S ESCONDIDO,ESCONDIDO,92025.000000000000000,,,28,0,50.000000000000000,-117.083007591000000,33.118131173099997
649,344,EXXON-APRO LLC,14275,102 W MISSION AVE,ESCONDIDO,92025.000000000000000,310 323-3992,,56,0,50.000000000000000,-117.085841820000000,33.130564665700000
650,351,EXXONMOBIL OIL CORP #11323,2555,501 W FELICITA AVE,ESCONDIDO,92025.000000000000000,760-747-1254,,24,0,50.000000000000000,-117.075884579000000,33.102906350799998
651,359,EXXONMOBIL OIL CORP. #11123,2077,2004 E VALLEY PKWY,ESCONDIDO,92027.000000000000000,760-745-4488,,24,0,50.000000000000000,-117.051708799000000,33.138015175600003
652,372,E-Z GAS INC,5117,1158 E WASHINGTON AVE,ESCONDIDO,92025.000000000000000,744-7788,,24,0,50.000000000000000,-117.068676592000000,33.133086570200000
653,387,"GOLDEN STATE GASOLINE, INC.",2521,225 W WASHINGTON,ESCONDIDO,92025.000000000000000,619-593-6652,,18,0,50.000000000000000,-117.086230575000000,33.125941884500001
654,394,HAWTHORNE RENT-IT SERVICE,2739,530 ANDREASEN DR,ESCONDIDO,92029.000000000000000,745-8775,,1,0,50.000000000000000,-117.107473810000000,33.121607026299998
655,405,KWIK STOP,14332,1140 E MISSION AVE,ESCONDIDO,92025.000000000000000,760 739-8785,"RAHIB, NABEEL",18,0,50.000000000000000,-117.071011973000000,33.136196798500002
656,418,NEFF RENTAL,5006,955 W MISSION AVE,ESCONDIDO,92025.000000000000000,760-747-6300,,2,0,50.000000000000000,-117.098932022000000,33.125434673599997
657,426,PKWY EXPRESS GAS/WESTINVEST,2074,1296 W VALLEY PKWY,ESCONDIDO,92029.000000000000000,619-297-5553,,37,0,50.000000000000000,-117.101436602000010,33.114419156399997
658,431,PLAVAN COMMERCIAL FUELING,10996,321 QUINCE ST S,ESCONDIDO,92025.000000000000000,858 974-7666,,23,0,50.000000000000000,-117.087101930000000,33.115932653199998
659,435,QUIK KORNER DELI,13412,2015 E VALLEY PKWY,ESCONDIDO,92027.000000000000000,,,24,0,50.000000000000000,-117.051225964000000,33.137372084100001
660,440,"REBEL RENTS, INC.",3794,142 W MISSION AVE,ESCONDIDO,92025.000000000000000,,,2,0,50.000000000000000,-117.086541157000000,33.130594989000002
661,448,SHELL - EL NORTE SHELL GAS & CAR WASH,14568,615 W EL NORTE PKWY,ESCONDIDO,92026.000000000000000,760-489-2665,,52,0,50.000000000000000,-117.101701366000000,33.145373346299998
662,458,SHELL OIL PRODUCTS US #120881,6255,2110 W MISSION RD,ESCONDIDO,92029.000000000000000,760-737-8586,,28,0,50.000000000000000,-117.122740998000000,33.131034504799999
663,478,SHELL OIL PRODUCTS US #135275,1438,105 E VIA RANCHO PKWY,ESCONDIDO,92025.000000000000000,602-468-6944,,36,0,50.000000000000000,-117.067069418000000,33.068206021800002
664,504,"SHUSTER OIL & CHEMICAL COMPANY, INC",3521,635 W 3RD AVE,ESCONDIDO,92025.000000000000000,760-745-0591,,8,0,50.000000000000000,-117.072597142000010,33.122518910499998
665,516,SUN VALLEY FUEL,4198,550 N ESCONDIDO BLVD,ESCONDIDO,92025.000000000000000,760 745-6193,BASHER JARBO,24,0,50.000000000000000,-117.087299996000000,33.125564994199998
666,533,THRIFTY #9572,2676,1484 E WASHINGTON AVE,EL CAJON,92019.000000000000000,714-670-5179,,36,0,50.000000000000000,-117.063177520000000,33.136298611999997
667,549,UNOCAL CONOCOPHILLIPS#256576 KAY OIL CO,4088,2375 E VALLEY PKWY,ESCONDIDO,92027.000000000000000,759-3484,,44,0,50.000000000000000,-117.044361596000000,33.140535071599999
668,551,USA CORPORATION #245,2719,411 S ESCONDIDO BLVD,ESCONDIDO,92025.000000000000000,818-865-9200,,39,0,50.000000000000000,-117.082380163000000,33.117235627299998
669,570,VALLEY FUELS,13391,1602 E VALLEY PKWY,ESCONDIDO,92027.000000000000000,,,28,0,50.000000000000000,-117.059406486000000,33.134403149000001
670,573,VONS GAS #2344,13779,469  W FELICITA,ESCONDIDO,92025.000000000000000,,,42,0,50.000000000000000,-117.074893004000000,33.103202590000002
671,579,76 - CAMPUS 76,15728,102 E CARMEL ST,SAN MARCOS,92069.000000000000000,760-752-7600,,36,0,50.000000000000000,-117.163312807000000,33.136094444800001
672,581,76 PRODUCTS/NORTH COUNTY AUTO CENTER-MM,13427,750 N ESCONDIDO BLVD,ESCONDIDO,92025.000000000000000,,,78,0,50.000000000000000,-117.088655948000000,33.128852600999998
673,595,ARCO AM/PM MINI MART #1754,14123,300 W WASHINGTON AVE,ESCONDIDO,92025.000000000000000,,"NAOUM, SENAN F.",24,0,50.000000000000000,-117.088435024000010,33.125901922799997
674,599,ARCO AMPM #5365,7288,100 LA TERRAZA BLVD,ESCONDIDO,92025.000000000000000,,,36,0,50.000000000000000,-117.095826523000000,33.116882770899998
675,630,ESCO FUELS,14589,501 W 9TH AVE,ESCONDIDO,92025.000000000000000,760-839-6791,,28,0,50.000000000000000,-117.082012180000010,33.111322366600000
676,632,EXXON #1021/NEW WEST PETROLEUM SD2,1962,825 N CITRACADO,ESCONDIDO,92029.000000000000000,916-443-0890,,28,0,50.000000000000000,-117.122327428000010,33.131492644900000
677,640,HAWTHORNE MACHINERY CO.,16259,1600 E MISSION RD,SAN MARCOS,92069.000000000000000,760-740-2900,,1,0,50.000000000000000,-117.124481691000000,33.132467926200000
678,648,RYDER TRUCK RENTAL,446,520 GANNON,ESCONDIDO,92025.000000000000000,489-5830,,2,0,50.000000000000000,-117.089675481000000,33.122407787900002
679,663,UNITED RENTALS,6965,1960 W MISSION RD,ESCONDIDO,92029.000000000000000,760-726-7200,,2,0,50.000000000000000,-117.120444234999990,33.130177691299998
680,665,VALERO-AUTO PARK TOUGHLESS WASH,7355,1400 AUTO PARK WY,ESCONDIDO,92029.000000000000000,489-8425,,24,0,50.000000000000000,-117.104282881000000,33.114248068599998
681,669,"AHM, INC. AIRCRAFT HANGER MNGT.",13588,2155 S MISSION RD,FALLBROOK,92028.000000000000000,760 431-7670,JIM HENDRICKS & FRANK MARSHA,1,0,50.000000000000000,-117.123669742999990,33.130924907299999
682,703,SKS INC.,2707,526 VENTURE ST,ESCONDIDO,92029.000000000000000,858-530-1193,,9,0,50.000000000000000,-117.152975742000000,33.136046110000002
683,708,"7-ELEVEN #13597 /7-ELEVEN, INC",2505,522 W 9TH ST,ESCONDIDO,92025.000000000000000,268-1070,,12,0,50.000000000000000,-117.082572310000000,33.111682052799999
684,724,ARCO AMPM #5263,8074,538 NORDAHL RD,ESCONDIDO,92029.000000000000000,,,24,0,50.000000000000000,-117.121666884000010,33.130789948500002
685,768,SHELL OIL PRODUCTS US #120425,10082,3480 DEL LAGO BLVD,ESCONDIDO,92029.000000000000000,602-468-6944,,42,0,50.000000000000000,-117.071432903000000,33.071059604799999
686,778,THRIFTY #9579,2685,434 W 5TH AV,ESCONDIDO,92025.000000000000000,,,24,0,50.000000000000000,-117.083959654000000,33.115901292700002
687,780,US PETROLEUM & SERVICE-HAN'S*,7919,445 W 5TH AV,ESCONDIDO,92025.000000000000000,760-739-9196,,26,0,50.000000000000000,-117.083622611000000,33.115353647900001
688,782,VEGA BIODIESEL,16271,1546 TANGLEWOOD LN,SAN MARCOS,92078.000000000000000,858-705-3746,,1,0,50.000000000000000,-117.095029405999990,33.107160512299998
689,201,ARCO -SAN MARCOS AMPM,14765,125 N RANCHO SANTA FE RD,SAN MARCOS,92069.000000000000000,760-744-9012,,24,0,51.000000000000000,-117.197476342000000,33.150837421900000
690,479,SHELL OIL PRODUCTS US #135278,5460,780 W EL NORTE PKWY,ESCONDIDO,92026.000000000000000,602-468-6944,,30,0,51.000000000000000,-117.103235082000000,33.147222028000002
691,578,"7 ELEVEN #32326/7-ELEVEN, INC",11216,3251 BUSINESS PARK DR,VISTA,92081.000000000000000,,,48,0,51.000000000000000,-117.228932638000000,33.132655661599998
692,582,76-KING'S EL NORTE 76,12905,1062 W EL NORTE PKWY,ESCONDIDO,92026.000000000000000,760 741-7600,,32,0,51.000000000000000,-117.107351705000000,33.147549903399998
693,585,"7-ELEVEN #18977 /7-ELEVEN, INC",2437,578 MISSION RD,SAN MARCOS,92069.000000000000000,438-8444,,12,0,51.000000000000000,-117.149690818000000,33.145390790100002
694,588,"7-ELEVEN #21785 /7-ELEVEN, INC",2510,260 E MISSION AVE,ESCONDIDO,92025.000000000000000,268-1070,,12,0,51.000000000000000,-117.159492779000000,33.142917775599997
695,598,ARCO AMPM #5268,7771,1187 SAN MARCOS BLVD,SAN MARCOS,92069.000000000000000,,,24,0,51.000000000000000,-117.193411225000010,33.133020500500002
696,603,ARCO AMPM#6376,11264,450 W EL NORTE PKWY,ESCONDIDO,92026.000000000000000,,,36,0,51.000000000000000,-117.097553312000000,33.144507745200002
697,605,ARCO-SYCAMORE AM/PM #5254,4291,625 SYCAMORE AVE,VISTA,92083.000000000000000,760-727-8965,,24,0,51.000000000000000,-117.215150069000000,33.165877471500004
698,612,CHEVRON #202870,9925,1200 W SAN MARCOS BLVD,SAN MARCOS,92069.000000000000000,510-842-9002,,36,0,51.000000000000000,-117.194639024000000,33.133430648699999
699,618,CHEVRON-PALM SPRING OIL CO.,2023,110 S RANCHO SANTA FE RD,SAN MARCOS,92069.000000000000000,760.320.0644,CAROL,48,0,51.000000000000000,-117.199446529000000,33.148871972300000
700,624,CIRCLE K/76 #2705250,13839,190 SAN MARCOS BLVD,SAN MARCOS,92069.000000000000000,281-293-1000,,24,0,51.000000000000000,-117.165055866000000,33.141438690100003
701,627,COUNTY OF SAN DIEGO/FUELING STA-SAN MAR,10360,1579 OSAGE,SAN MARCOS,92069.000000000000000,,,4,0,51.000000000000000,-117.196364059000000,33.147227548600000
702,634,EXXON #1041/NEW WEST PETROLEUM SD1,4301,112 S RANCHO SANTA FE RD,SAN MARCOS,92069.000000000000000,916-443-0890,,34,0,51.000000000000000,-117.198979523999990,33.149647183900001
703,646,PENSKE TRUCK  LEASING CORP.,11742,1355 LINDA VISTA DR,SAN MARCOS,92069.000000000000000,760-471-5707,,2,0,51.000000000000000,-117.196601341999990,33.136972538199998
704,647,RANCHO SANTA FE GAS,2051,105 S RANCHO SANTA FE RD,SAN MARCOS,92069.000000000000000,760 471-5448,SHAWN HINDI,28,0,51.000000000000000,-117.198727988000000,33.148594381000002
705,649,SAN MARCOS GAS,8089,1290 W MISSION RD,SAN MARCOS,92069.000000000000000,760 752-7082,,40,0,51.000000000000000,-117.188204266000000,33.148613662099997
706,651,SHELL OIL PRODUCTS US #121715,4065,679 SAN MARCOS BLVD,SAN MARCOS,92069.000000000000000,602-468-6944,,44,0,51.000000000000000,-117.178461371000000,33.136898824500001
707,656,SKS INC.,2709,875 GRAND AVE,SAN MARCOS,92069.000000000000000,858-530-1193,,16,0,51.000000000000000,-117.182390647000010,33.139134424799998
708,686,"HOLLANDIA DAIRY, INC",2337,622 E MISSION RD,SAN MARCOS,92069.000000000000000,760-744-3222,,28,0,51.000000000000000,-117.148649070999990,33.145287842099997
709,719,7-ELEVEN STORE #33971,16173,696 SAN MARCOS BLVD,SAN MARCOS,92069.000000000000000,760-744-4050,,36,0,51.000000000000000,-117.178561415000000,33.137433938500003
710,734,"CHEVRON /G&M OIL CO, #141",15370,130 KNOLL RD,SAN MARCOS,92069.000000000000000,760 744-9913,,36,0,51.000000000000000,-117.174880630000000,33.139051696300001
711,761,OCHS INC.,3635,145 VIA VERA CRUZ,SAN MARCOS,92069.000000000000000,760 744-5441,"OCHS, CARENCE",20,0,51.000000000000000,-117.190342275000010,33.141505862599999
712,773,SHELL-SAN MARCOS/KA MANAGEMENT INC.,12682,800 RANCHO SANTE FE,SAN MARCOS,92069.000000000000000,858 541 2954,,52,0,51.000000000000000,-117.209553945000000,33.130829233599997
713,13,APRO-LLC #27,14780,976 ESCONDIDO AV,VISTA,92083.000000000000000,323-893-2411,,44,0,52.000000000000000,-117.234799725000000,33.192911661799997
714,16,ARCO-MELROSE ARCO,14118,1590 S MELROSE DR,VISTA,92081.000000000000000,760-599-7059,,36,0,52.000000000000000,-117.247573051000000,33.167682933099996
715,21,"FILLCO, AMMEX OIL, INC.",15055,1244 N SANTA FE AV,VISTA,92083.000000000000000,760 806-5360,,28,0,52.000000000000000,-117.245037698000000,33.216260383700003
716,27,SHELL OIL PRODUCTS US #128022,10869,400 SYCAMORE AV,VISTA,92083.000000000000000,602-468-6944,,40,0,52.000000000000000,-117.213268371000000,33.168776385999998
717,59,76  @ SHAWDOW RIDGE,14797,636 SYCAMORE AVE,VISTA,92081.000000000000000,760-598-0076,,26,0,52.000000000000000,-117.215958110000000,33.166400616200001
718,92,"7-ELEVEN #13625 /7-ELEVEN, INC",2433,470 N MELROSE,VISTA,92083.000000000000000,438-8444,,12,0,52.000000000000000,-117.254789716999990,33.204479293500000
719,99,"7-ELEVEN #15923 /7-ELEVEN, INC",2435,1501 N SANTA FE AVE,VISTA,92084.000000000000000,438-8444,,12,0,52.000000000000000,-117.244781093000000,33.221527975000001
720,115,"7-ELEVEN #24085 /7-ELEVEN, INC",2431,900 N SANTA FE,VISTA,92083.000000000000000,438-8444,,12,0,52.000000000000000,-117.245392370999990,33.212008565799998
721,132,7-ELEVEN #33376,13207,1610 S MELROSE,VISTA,92081.000000000000000,,,36,0,52.000000000000000,-117.265961738000000,33.182805151799997
722,137,AMERICAN PROTROLEUM,15931,1740 E VISTA WY,VISTA,92084.000000000000000,619-916-6132,,34,0,52.000000000000000,-117.226754472000000,33.226017230099998
723,198,ARCO -BARNICLES EXPRESS,4414,845 E VISTA WY,VISTA,92084.000000000000000,760-871-0740,,36,0,52.000000000000000,-117.233897823000010,33.209965764300001
724,268,CHEVRON-FOOTHILL,13176,1211 E VISTA WY,VISTA,92084.000000000000000,760-945-3828,,58,0,52.000000000000000,-117.225625833000000,33.217754619099999
725,310,COUNTY OF SAN DIEGO/VISTA REGIONAL CENT,10336,325 MELROSE DR,VISTA,92083.000000000000000,,,4,0,52.000000000000000,-117.254906682000000,33.200708127799999
726,340,EXXON APRO #30 /UNITED OIL GAS,14520,485 MELROSE DR,VISTA,92083.000000000000000,310 323-3992,UNITED OIL COMPANY /JEFF APP,24,0,52.000000000000000,-117.253944160000000,33.204442497499997
727,345,EXXON-E. VISTA #1NEW WEST PETROLEUM LLC,3536,911 E VISTA WY,VISTA,92083.000000000000000,916-443-0890,,28,0,52.000000000000000,-117.231628142999990,33.210789049100001
728,415,MOBIL-TONY'S,4168,801 S SANTA FE AVE,VISTA,92083.000000000000000,760-726-4990,,18,0,52.000000000000000,-117.235755599000000,33.194180292799999
729,457,SHELL OIL PRODUCTS US #120878,4329,210 S MELROSE AVE,VISTA,92081.000000000000000,602-468-6944,,28,0,52.000000000000000,-117.253117648000000,33.193500304300002
730,496,SHELL OIL PRODUCTS US #136241,1960,145 N EMERALD DR,VISTA,92083.000000000000000,602-468-6944,,36,0,52.000000000000000,-117.279147858000000,33.189543574699996
731,508,SKS INC.,2710,620 S SANTA FE,VISTA,92084.000000000000000,858-530-1193,,7,0,52.000000000000000,-117.237803947000000,33.196094440300001
732,572,VISTA EQUIPMENT RENTAL,9607,1121 S SANTA FE AVE,VISTA,92083.000000000000000,760-726-6114,,2,0,52.000000000000000,-117.227246218999990,33.189618531199997
733,590,"7-ELEVEN #27524 /7-ELEVEN, INC",5569,1177 N ESCONDIDO BLVD,ESCONDIDO,92026.000000000000000,,,12,0,52.000000000000000,-117.250825846000000,33.182025370900000
734,592,7-ELEVEN #33160,14120,298 SYCAMORE DR,VISTA,92083.000000000000000,760-598-0590,,24,0,52.000000000000000,-117.211916024000000,33.170009514599997
735,593,APRO #37,16145,535 N SANTA FE AVE,VISTA,92083.000000000000000,,,26,0,52.000000000000000,-117.244597068999990,33.207186572399998
736,602,ARCO AMPM #6315,9276,1403 S SANTA FE AVE,VISTA,92083.000000000000000,760-726-8188,,24,0,52.000000000000000,-117.223386145000010,33.184503395500002
737,621,CHEVRON-WESTERN STATES PETROLEUM #2 LL,12965,600 HACIENDA DR,VISTA,92081.000000000000000,,,40,0,52.000000000000000,-117.254120177000000,33.193123535500000
738,622,CIRCLE K - #1984,5358,795 SHADOWRIDGE DR,VISTA,92081.000000000000000,602 728-3593,,12,0,52.000000000000000,-117.221924480000000,33.166022791099998
739,636,EXXONMOBIL OIL CORP. #11433,5755,710 SYCAMORE AVE,VISTA,92081.000000000000000,727-5360,,36,0,52.000000000000000,-117.217695641000010,33.164531155900001
740,642,KA MANAGEMENT/MELROSE ARCO LLC,11032,1501 N MELROSE DR,OCEANSIDE,92056.000000000000000,760-806-4445,,46,0,52.000000000000000,-117.259322276000010,33.220339654400000
741,644,OCHS OIL COMPANY(TEXACO),307,1321 DISTRIBUTION WY,VISTA,92084.000000000000000,760 744-5441,,32,0,52.000000000000000,-117.236398936000000,33.150835093600001
742,725,ARCO AMPM #5297,363,26915 MESA ROCK RD,ESCONDIDO,92026.000000000000000,,,36,0,52.000000000000000,-117.127543157000010,33.197932861200002
743,737,COSTCO WHOLESALE #124,10593,1755 HACIENDA DR,VISTA,92081.000000000000000,,,24,0,52.000000000000000,-117.276776665000000,33.188182398599999
744,44,PACIFIC PRIDE - VALLEY CENTER OIL CORP,7125,28010 VALLEY CENTER RD,VALLEY CENTER,92082.000000000000000,760-749-1281,,24,0,53.000000000000000,-117.033896670000000,33.218847492199998
745,231,CHAMPAGNE GAS,9494,8808 LAWRENCE WELK DR,ESCONDIDO,92026.000000000000000,760-749-6195,,18,0,53.000000000000000,-117.144774579000000,33.233063880200000
746,425,PALA VISTA GAS STATION/KEY LEE,2798,29200 VALLEY CENTER RD,VALLEY CENTER,92082.000000000000000,760-749-1104,,24,0,53.000000000000000,-117.024542551000000,33.231534861599997
747,569,VALLEY CENTER EQUIPMENT RENTALS,12982,27427 VALLEY CENTER RD,VALLEY CENTER,92082.000000000000000,760-749-1780,,2,0,53.000000000000000,-117.032994763000000,33.208481335700000
748,695,COUNTY OF SAN DIEGO PUBLIC WKS/VALLEY C,10347,29216 VALLEY CENTER RD,VALLEY CENTER,92082.000000000000000,,,4,0,53.000000000000000,-117.023753201000010,33.231395761400002
749,56,RAINBOW OAKS INC.,14619,4811 5TH ST,RAINBOW,92028.000000000000000,760 728-1822,,4,0,55.000000000000000,-117.158547338000010,33.413622109599999
750,110,"7-ELEVEN #21800 /7-ELEVEN, INC",2439,631 S MAIN AVE,FALLBROOK,92028.000000000000000,438-8444,,6,0,55.000000000000000,-117.251767603000000,33.376865283800001
751,139,AMERICO GASOLINE,14994,1285 S MISSION RD,FALLBROOK,92028.000000000000000,760-728-9669,,32,0,55.000000000000000,-117.251576066000000,33.369721306700001
752,148,ARCO,14582,1161 S MAIN ST,FALLBROOK,92028.000000000000000,,,28,0,55.000000000000000,-117.251603480000000,33.371400362499998
753,181,ARCO AMPM #5277,7031,5555 MISSION RD,BONSALL,92003.000000000000000,,,24,0,55.000000000000000,-117.226261973000010,33.289682707099999
754,300,COUNTY OF SAN DIEGO PUBLIC WKS/BONSALL,10344,2370 PALA RD,FALLBROOK,92003.000000000000000,,,4,0,55.000000000000000,-117.220596282000000,33.298754711900003
755,338,EXXON /APRO LLC #21,12097,1202 S MAIN ST,FALLBROOK,92028.000000000000000,,,28,0,55.000000000000000,-117.250942444000000,33.371170010999997
756,374,FALLBROOK OIL CO.,3574,1208 S MAIN ST,FALLBROOK,92028.000000000000000,760-728-7703,,15,0,55.000000000000000,-117.250897585000000,33.370827866699997
757,480,SHELL OIL PRODUCTS US #135287,4048,1205 S MAIN ST,FALLBROOK,92028.000000000000000,602-468-6944,,34,0,55.000000000000000,-117.251625815000000,33.370776293600002
758,523,TEXACO-E & D STATION INC,2354,312 S MAIN ST,FALLBROOK,92028.000000000000000,760-728-2843,,12,0,55.000000000000000,-117.251033250000010,33.379964527500000
759,524,TEXACO-FALLBROOK,18,936 E MISSION RD,FALLBROOK,92028.000000000000000,760-731-6480,,40,0,55.000000000000000,-117.241826241000000,33.387045718499998
760,750,EXXONMOBIL OIL CORP #11445,3474,4730 SR-76,FALLBROOK,92028.000000000000000,760 723-1781,EXXONMOBIL CORP,30,0,55.000000000000000,-117.162360776000000,33.328854785799997
761,135,"ALLIANCE - N.H. COZENS, INC.",2140,1913 MAIN ST,JULIAN,92036.000000000000000,760-765-0774,,8,0,60.000000000000000,-116.600251683000000,33.076593586400001
762,301,COUNTY OF SAN DIEGO PUBLIC WKS/PALOMAR,10345,20745 STATE PARK RD,PALOMAR,92060.000000000000000,,,2,0,60.000000000000000,-116.883486328999990,33.318501524299997
763,738,COUNTY OF SAN DIEGO/JULIAN RD STATION,10349,1524 SR-78,JULIAN,92036.000000000000000,,,4,0,60.000000000000000,-116.592215616000000,33.077368510699998
764,741,COUNTY OF SAN DIEGO/SAN FELIPE RD STATI,10351,25704 SAN FELIPE RD,WARNER SPRING,92086.000000000000000,,,2,0,60.000000000000000,-116.560164016000000,33.164728550800000
765,765,RAMCO PETROLEUM,15349,30351 SR-78,SANTA YSABEL,92070.000000000000000,760,,16,0,60.000000000000000,-116.673027089000000,33.109315170700000
766,775,SUNSHINE SUMMIT INC,13380,35230 SR-79,WARNER SPRING,92086.000000000000000,,,8,0,60.000000000000000,-116.740248109000010,33.352254585200001
767,783,WARNER SPRINGS RANCH/ATTN:ERYN SISK,2361,31652 SR-79,WARNER SPRING,92086.000000000000000,760-782-4225,,2,0,60.000000000000000,-116.635180069000000,33.283568905999999
768,308,COUNTY OF SAN DIEGO/MT.LAGUNA RD STATI,10041,33947 MTLAGUNA DR,MT.LAGUNA,91948.000000000000000,,,2,0,61.000000000000000,-116.418213159000000,32.862180012899998
769,696,COUNTY OF SAN DIEGO/DESCANSO FLEET GARA,10341,24592 VIEJAS GRADE RD,DESCANSO,91916.000000000000000,,,2,0,61.000000000000000,-116.619462669000000,32.853580127299999
770,700,PERKINS STORE,3217,24680 VIEJAS GRADE RD,DESCANSO,91916.000000000000000,,,16,0,61.000000000000000,-116.616796403000000,32.853173434299997
771,701,PINE VALLEY STORE,5022,28820 SR-80,PINE VALLEY,91962.000000000000000,619-473-8723,,12,0,61.000000000000000,-116.530394623000010,32.822711579100002
772,756,LAKE CUYAMACA RECREATION & PARK DISTRIC,7879,15027 SR-79,JULIAN,92036.000000000000000,760-765-0515,,1,0,61.000000000000000,-116.585028295000000,32.988002294499999
773,304,COUNTY OF SAN DIEGO/CAMPO RD STATION,10332,970 FOREST GATE RD,CAMPO,91906.000000000000000,,,4,0,62.000000000000000,-116.473103013000000,32.609587593999997
774,408,LAKE MORENA COUNTRY MARKET,13934,29801 OAK DR,CAMPO,91906.000000000000000,619-478-9067,,12,0,62.000000000000000,-116.505151352000000,32.679237435200001
775,438,RAMCO PETROLEUM #3,15584,447 TECATE RD,TECATE,91980.000000000000000,619 478-9343,,30,0,62.000000000000000,-116.628075763000000,32.578797938299999
776,503,SHELL-WRIGHT FUEL STOP/SHELL,12226,1494 CARRIZO GORGE RD,JACUMBA,91934.000000000000000,619 766 4448,,26,0,62.000000000000000,-116.166324512000000,32.634601582700000
777,698,MTN TOP MARKET,15945,39710 SR-80,BLVD,91905.000000000000000,619-766-4530,,4,0,62.000000000000000,-116.294120948000000,32.669059523300000
778,704,VALERO - WILD BILL'S OUTPOST VALERO,15634,1451 CARRIZO GORGE RD,JACUMBA,91934.000000000000000,619 766-4455,,26,0,62.000000000000000,-116.164280061000000,32.632719470600001
779,731,CAMERON CORNERS CONVENIENCE STORE,16160,31484 SR-94,CAMPO,91906.000000000000000,,,14,0,62.000000000000000,-116.472139733000010,32.628833086400000
780,758,LIVE OAK SPRINGS MARKET,10677,37820 SR-80,BLVD,91905.000000000000000,619 766-3387,,8,0,62.000000000000000,-116.338091352000010,32.689771789300003
781,227,BOTTLE SHOPPE,3865,590 PALM CANYON DR,BORREGO SPRIN,92004.000000000000000,767-5513,,8,0,63.000000000000000,-116.380036653999990,33.257554108400001
782,303,COUNTY OF SAN DIEGO/BORREGO RD STATION,10350,1550 RANGO WY,BORREGO SPRIN,92004.000000000000000,,,4,0,63.000000000000000,-116.353147205000000,33.222795398000002
783,571,VILLAGE FOOD & FUEL,16065,755 PALM CANYON DR,BORREGO SPRIN,92004.000000000000000,760 767-0800,,9,0,63.000000000000000,-116.372746418000010,33.256153701499997
784,577,XL CO.,3899,525 PALM CANYON DR,BORREGO SPRIN,92004.000000000000000,760-767-5587,,26,0,63.000000000000000,-116.383390766999990,33.256137550200002